,Title,Title_URL,Info,Number,Address,addax_URL,addax,additionallink_URL,additionallink,categories_URL,categories,proffoption,uiwide,findsimilar,Info1,Info2,Info3,uiwide4,addax_URL5,addax6,addax7,Name,lonLat,x,y
0,Resthon AS,https://proff.no/selskap/resthon-as/oslo/barer-og-puber/IF5JYUK01X8/,Mer info,Org nr 916 322 348,"Stenersgata 2, 0184 Oslo",tel:22423420,22 42 34 20,https://proff.no/karts%C3%B8k?id=IF5JYUK01X8,Vis i kart,https://proff.no/s%C3%B8k-etter-bransje/restauranter-og-kafeer/I:47390/?q=Restauranter%20og%20kafeer,Restauranter og kafeer,Sammenlign,Overvåk,Finn lignende,"
            Driftsinntekter 2021

            92 391' NOK
        ",Driftsinntekter 2021,"
            Ansatte

            281
        ",Daglig leder,https://proff.no/rolle/tore-kristian-melg%C3%A5rdshagen/-/478735/,Tore Kristian Melgårdshagen,(f 1967),,Error,E,r
1,Old Irish Pub Norway AS,https://proff.no/selskap/old-irish-pub-norway-as/oslo/barer-og-puber/IF72GLK01X8/,Mer info,Org nr 918 864 776,"Tollbugata 27, 0157 Oslo",tel:22427700,22 42 77 00,https://proff.no/karts%C3%B8k?id=IF72GLK01X8,Vis i kart,https://proff.no/s%C3%B8k-etter-bransje/barer-og-puber/I:2492/?q=Barer%20og%20puber,Barer og puber,Sammenlign,Overvåk,Finn lignende,"
            Driftsinntekter 2021

            58 929' NOK
        ",Driftsinntekter 2021,"
            Ansatte

            287
        ",Daglig leder,https://proff.no/rolle/simon-vistisen-m%C3%B8ller/-/2107375/,Simon Vistisen Møller,(f 1992),,"[10.740323, 59.911453]",10.740323,59.911453
2,Sio Mat og Drikke AS,https://proff.no/selskap/sio-mat-og-drikke-as/oslo/barer-og-puber/IFVY8U501X8/,Mer info,Org nr 960 658 493,"Problemveien 11, 0371 Oslo",tel:22853380,22 85 33 80,https://proff.no/karts%C3%B8k?id=IFVY8U501X8,Vis i kart,https://proff.no/s%C3%B8k-etter-bransje/restauranter-og-kafeer/I:47390/?q=Restauranter%20og%20kafeer,Restauranter og kafeer,Sammenlign,Overvåk,Finn lignende,"
            Driftsinntekter 2021

            55 250' NOK
        ",Driftsinntekter 2021,"
            Ansatte

            166
        ",Daglig leder,https://proff.no/rolle/fredrik-%C3%B8ren-refsnes/-/1075265/,Fredrik Øren Refsnes,(f 1983),,"[10.721295, 59.940506]",10.721295,59.940506
3,Oslo Street Food AS,https://proff.no/selskap/oslo-street-food-as/oslo/barer-og-puber/IF84OIG01X8/,Mer info,Org nr 920 647 960,"Torggata 16, 0181 Oslo",tel:90415094,904 15 094,https://proff.no/karts%C3%B8k?id=IF84OIG01X8,Vis i kart,https://proff.no/s%C3%B8k-etter-bransje/barer-og-puber/I:2492/?q=Barer%20og%20puber,Barer og puber,Sammenlign,Overvåk,Finn lignende,"
            Driftsinntekter 2021

            48 483' NOK
        ",Driftsinntekter 2021,"
            Ansatte

            87
        ",Daglig leder,https://proff.no/rolle/kim-agathon-fager-svarthol/-/1337322/,Kim-Agathon Fager Svarthol,(f 1984),,"[10.751005, 59.915926]",10.751005,59.915926
4,Avdeling 14 Arkaden,https://proff.no/selskap/avdeling-14-arkaden/oslo/barer-og-puber/IF5J2M401X8/,Mer info,Org nr 916 280 572,"Skippergata 9, 0152 Oslo",tel:40092364,400 92 364,https://proff.no/karts%C3%B8k?id=IF5J2M401X8,Vis i kart,https://proff.no/s%C3%B8k-etter-bransje/barer-og-puber/I:2492/?q=Barer%20og%20puber,Barer og puber,Sammenlign,Overvåk,Finn lignende,"
            Driftsinntekter 2021

            38 955' NOK
        ",Driftsinntekter 2021,"
            Ansatte

            89
        ",Daglig leder,https://proff.no/rolle/pernilla-maria-persson/-/2200991/,Pernilla Maria Persson,(f 1970),Stockfleth AS,"[10.745289, 59.908289]",10.745289,59.908289
5,Bp Pubutvikling AS,https://proff.no/selskap/bp-pubutvikling-as/oslo/barer-og-puber/IFYTYQP01X8/,Mer info,Org nr 965 497 633,"Rådhusgata 32, 0151 Oslo",,,https://proff.no/karts%C3%B8k?id=IFYTYQP01X8,Vis i kart,https://proff.no/s%C3%B8k-etter-bransje/barer-og-puber/I:2492/?q=Barer%20og%20puber,Barer og puber,Sammenlign,Overvåk,Finn lignende,"
            Driftsinntekter 2021

            27 579' NOK
        ",Driftsinntekter 2021,"
            Ansatte

            19
        ",Daglig leder,https://proff.no/rolle/rolf-fredrik-ekelund/-/1295549/,Rolf Fredrik Ekelund,(f 1980),,"[10.738916, 59.910205]",10.738916,59.910205
6,Lawo Terrasse,https://proff.no/selskap/lawo-terrasse/oslo/barer-og-puber/IGCK95U01X8-1/,Mer info,Org nr 988 559 202,"Karl Johans gate 26, 0162 Oslo",tel:23356310,23 35 63 10,https://proff.no/karts%C3%B8k?id=IGCK95U01X8-1,Vis i kart,https://proff.no/s%C3%B8k-etter-bransje/barer-og-puber/I:2492/?q=Barer%20og%20puber,Barer og puber,Sammenlign,Overvåk,Finn lignende,"
            Driftsinntekter 2021

            25 705' NOK
        ",Driftsinntekter 2021,"
            Ansatte

            75
        ",Daglig leder,https://proff.no/rolle/frederik-holger-mygind/-/1895528/,Frederik Holger Mygind,(f 1985),Johns Bar AS,"[10.734686, 59.914823]",10.734686,59.914823
7,Johns Bar AS,https://proff.no/selskap/johns-bar-as/oslo/barer-og-puber/IGCK95U01X8/,Mer info,Org nr 988 559 202,"Universitetsgata 26, 0162 Oslo",tel:40007078,400 07 078,https://proff.no/karts%C3%B8k?id=IGCK95U01X8,Vis i kart,https://proff.no/s%C3%B8k-etter-bransje/barer-og-puber/I:2492/?q=Barer%20og%20puber,Barer og puber,Sammenlign,Overvåk,Finn lignende,"
            Driftsinntekter 2021

            25 705' NOK
        ",Driftsinntekter 2021,"
            Ansatte

            75
        ",Daglig leder,https://proff.no/rolle/frederik-holger-mygind/-/1895528/,Frederik Holger Mygind,(f 1985),,"[10.736746, 59.914883]",10.736746,59.914883
8,Scene og Pubdrift AS,https://proff.no/selskap/scene-og-pubdrift-as/oslo/barer-og-puber/IF903A001X8/,Mer info,Org nr 922 113 432,"Karl Johans gate 27, 0159 Oslo",,,https://proff.no/karts%C3%B8k?id=IF903A001X8,Vis i kart,https://proff.no/s%C3%B8k-etter-bransje/barer-og-puber/I:2492/?q=Barer%20og%20puber,Barer og puber,Sammenlign,Overvåk,Finn lignende,"
            Driftsinntekter 2021

            21 414' NOK
        ",Driftsinntekter 2021,"
            Ansatte

            0
        ",Daglig leder,https://proff.no/rolle/morten-guldvik/-/906603/,Morten Guldvik,(f 1984),,"[10.73997, 59.913595]",10.73997,59.913595
9,Hasle Linie Gastropub AS,https://proff.no/selskap/hasle-linie-gastropub-as/oslo/barer-og-puber/IF34T8U01X8/,Mer info,Org nr 912 256 014,"Bøkkerveien 4, 0579 Oslo",,,https://proff.no/karts%C3%B8k?id=IF34T8U01X8,Vis i kart,https://proff.no/s%C3%B8k-etter-bransje/barer-og-puber/I:2492/?q=Barer%20og%20puber,Barer og puber,Sammenlign,Overvåk,Finn lignende,"
            Driftsinntekter 2021

            20 901' NOK
        ",Driftsinntekter 2021,"
            Ansatte

            31
        ",Daglig leder,https://proff.no/rolle/rolf-fredrik-ekelund/-/1295549/,Rolf Fredrik Ekelund,(f 1980),,"[10.793998, 59.92698]",10.793998,59.92698
10,London Pub,https://proff.no/selskap/london-pub/oslo/barer-og-puber/IGE3OXT01X8/,Mer info,Org nr 991 145 729,"C. J. Hambros plass 5, 0164 Oslo",tel:22708700,22 70 87 00,https://proff.no/karts%C3%B8k?id=IGE3OXT01X8,Vis i kart,https://proff.no/s%C3%B8k-etter-bransje/restauranter-og-kafeer/I:47390/?q=Restauranter%20og%20kafeer,Restauranter og kafeer,Sammenlign,Overvåk,Finn lignende,"
            Driftsinntekter 2021

            16 230' NOK
        ",Driftsinntekter 2021,"
            Ansatte

            40
        ",Daglig leder,https://proff.no/rolle/avni-fetisi/-/984013/,Avni Fetisi,(f 1970),London Per Drift AS,"[10.74086, 59.915408]",10.74086,59.915408
11,Vineria Ventidue,https://proff.no/selskap/vineria-ventidue/oslo/barer-og-puber/IF6UP1701X8/,Mer info,Org nr 918 502 459,"Gimleveien 22, 0266 Oslo",tel:91358080,913 58 080,https://proff.no/karts%C3%B8k?id=IF6UP1701X8,Vis i kart,https://proff.no/s%C3%B8k-etter-bransje/barer-og-puber/I:2492/?q=Barer%20og%20puber,Barer og puber,Sammenlign,Overvåk,Finn lignende,"
            Driftsinntekter 2021

            15 084' NOK
        ",Driftsinntekter 2021,"
            Ansatte

            32
        ",Daglig leder,https://proff.no/rolle/alessandro-parmeggiani/-/4344/,Alessandro Parmeggiani,(f 1963),Vineria AS,"[10.705522, 59.920224]",10.705522,59.920224
12,Klingenberg Bardrift AS,https://proff.no/selskap/klingenberg-bardrift-as/oslo/barer-og-puber/IF9LWFS01X8/,Mer info,Org nr 923 131 000,"Karl Johans gate 27, 0159 Oslo",,,https://proff.no/karts%C3%B8k?id=IF9LWFS01X8,Vis i kart,https://proff.no/s%C3%B8k-etter-bransje/barer-og-puber/I:2492/?q=Barer%20og%20puber,Barer og puber,Sammenlign,Overvåk,Finn lignende,"
            Driftsinntekter 2021

            14 861' NOK
        ",Driftsinntekter 2021,,Daglig leder,https://proff.no/rolle/morten-guldvik/-/906603/,Morten Guldvik,(f 1984),,"[10.73997, 59.913595]",10.73997,59.913595
13,Jaeger AS,https://proff.no/selskap/jaeger-as/oslo/barer-og-puber/IGGZITC01X8/,Mer info,Org nr 995 990 016,"Grensen 9, 0159 Oslo",,,https://proff.no/karts%C3%B8k?id=IGGZITC01X8,Vis i kart,https://proff.no/s%C3%B8k-etter-bransje/barer-og-puber/I:2492/?q=Barer%20og%20puber,Barer og puber,Sammenlign,Overvåk,Finn lignende,"
            Driftsinntekter 2021

            14 733' NOK
        ",Driftsinntekter 2021,"
            Ansatte

            44
        ",Daglig leder,https://proff.no/rolle/ola-smith-simonsen/-/772417/,Ola Smith-Simonsen,(f 1976),,"[10.743711, 59.914048]",10.743711,59.914048
14,Parkteatret Bar AS,https://proff.no/selskap/parkteatret-bar-as/oslo/barer-og-puber/IGCHA5U01X8/,Mer info,Org nr 988 420 530,"Olaf Ryes plass 11, 0552 Oslo",tel:22356298,22 35 62 98,https://proff.no/karts%C3%B8k?id=IGCHA5U01X8,Vis i kart,https://proff.no/s%C3%B8k-etter-bransje/barer-og-puber/I:2492/?q=Barer%20og%20puber,Barer og puber,Sammenlign,Overvåk,Finn lignende,"
            Driftsinntekter 2021

            14 073' NOK
        ",Driftsinntekter 2021,"
            Ansatte

            79
        ",Daglig leder,https://proff.no/rolle/dan-michael-danino/-/1014231/,Dan-Michael Danino,(f 1980),,"[10.758325, 59.923492]",10.758325,59.923492
15,Tilt AS,https://proff.no/selskap/tilt-as/oslo/barer-og-puber/IGFPRJU01X8/,Mer info,Org nr 993 855 162,"Torggata 16, 0181 Oslo",tel:97782025,977 82 025,https://proff.no/karts%C3%B8k?id=IGFPRJU01X8,Vis i kart,https://proff.no/s%C3%B8k-etter-bransje/barer-og-puber/I:2492/?q=Barer%20og%20puber,Barer og puber,Sammenlign,Overvåk,Finn lignende,"
            Driftsinntekter 2021

            13 704' NOK
        ",Driftsinntekter 2021,"
            Ansatte

            19
        ",Daglig leder,https://proff.no/rolle/bj%C3%B8rn-inge-larsen/-/583421/,Bjørn Inge Larsen,(f 1973),,"[10.751005, 59.915926]",10.751005,59.915926
16,Dråpen Solsiden AS,https://proff.no/selskap/dr%C3%A5pen-solsiden-as/oslo/barer-og-puber/IGDRFZ701X8/,Mer info,Org nr 990 574 243,"Observatoriegata 25, 0254 Oslo",,,https://proff.no/karts%C3%B8k?id=IGDRFZ701X8,Vis i kart,https://proff.no/s%C3%B8k-etter-bransje/barer-og-puber/I:2492/?q=Barer%20og%20puber,Barer og puber,Sammenlign,Overvåk,Finn lignende,"
            Driftsinntekter 2021

            12 886' NOK
        ",Driftsinntekter 2021,"
            Ansatte

            51
        ",Daglig leder,https://proff.no/rolle/jan-tore-fladvad/-/215518/,Jan-Tore Fladvad,(f 1970),,"[10.72341, 59.911926]",10.72341,59.911926
17,String Showbar,https://proff.no/selskap/string-showbar/oslo/barer-og-puber/IGB30KB01X8/,Mer info,Org nr 986 075 291,"Skippergata 21, 0154 Oslo",tel:22418900,22 41 89 00,https://proff.no/karts%C3%B8k?id=IGB30KB01X8,Vis i kart,https://proff.no/s%C3%B8k-etter-bransje/barer-og-puber/I:2492/?q=Barer%20og%20puber,Barer og puber,Sammenlign,Overvåk,Finn lignende,"
            Driftsinntekter 2021

            12 656' NOK
        ",Driftsinntekter 2021,"
            Ansatte

            4
        ",Daglig leder,https://proff.no/rolle/magnus-saxon-miller-morland/-/306650/,Magnus Saxon Miller Morland,(f 1972),Saxon Bar & Restaurantdrift AS,"[10.747522, 59.910962]",10.747522,59.910962
18,Nox,https://proff.no/selskap/nox/oslo/barer-og-puber/IGEEI4901X8/,Mer info,Org nr 991 650 105,"Henrik Ibsens gate 100, 0255 Oslo",,,https://proff.no/karts%C3%B8k?id=IGEEI4901X8,Vis i kart,https://proff.no/s%C3%B8k-etter-bransje/barer-og-puber/I:2492/?q=Barer%20og%20puber,Barer og puber,Sammenlign,Overvåk,Finn lignende,"
            Driftsinntekter 2021

            11 734' NOK
        ",Driftsinntekter 2021,"
            Ansatte

            40
        ",Daglig leder,https://proff.no/rolle/frederik-holger-mygind/-/1895528/,Frederik Holger Mygind,(f 1985),La Belle Drift AS,"[10.718812, 59.914153]",10.718812,59.914153
19,Babar Invest AS,https://proff.no/selskap/babar-invest-as/oslo/barer-og-puber/IF6AZMW01X8/,Mer info,Org nr 917 583 080,"Stortingsgata 8, 0161 Oslo",tel:22426846,22 42 68 46,https://proff.no/karts%C3%B8k?id=IF6AZMW01X8,Vis i kart,https://proff.no/s%C3%B8k-etter-bransje/barer-og-puber/I:2492/?q=Barer%20og%20puber,Barer og puber,Sammenlign,Overvåk,Finn lignende,"
            Driftsinntekter 2021

            10 916' NOK
        ",Driftsinntekter 2021,"
            Ansatte

            16
        ",Daglig leder,https://proff.no/rolle/babar-ali-butt/-/1924368/,Babar Ali Butt,(f 1972),,"[10.73755, 59.913151]",10.73755,59.913151
20,Chicken and Ribs AS,https://proff.no/selskap/chicken-and-ribs-as/oslo/barer-og-puber/IF2PN0K01X8/,Mer info,Org nr 911 548 100,"Vulkan 7, 0178 Oslo",,,https://proff.no/karts%C3%B8k?id=IF2PN0K01X8,Vis i kart,https://proff.no/s%C3%B8k-etter-bransje/barer-og-puber/I:2492/?q=Barer%20og%20puber,Barer og puber,Sammenlign,Overvåk,Finn lignende,"
            Driftsinntekter 2021

            10 814' NOK
        ",Driftsinntekter 2021,"
            Ansatte

            28
        ",Daglig leder,https://proff.no/rolle/bo-vivike/-/74687/,Bo Vivike,(f 1972),,"[10.751958, 59.922571]",10.751958,59.922571
21,Ac Blaze AS,https://proff.no/selskap/ac-blaze-as/oslo/barer-og-puber/IGFJWRS01X8/,Mer info,Org nr 993 581 992,"Grensen 1, 0159 Oslo",tel:22410309,22 41 03 09,https://proff.no/karts%C3%B8k?id=IGFJWRS01X8,Vis i kart,https://proff.no/s%C3%B8k-etter-bransje/barer-og-puber/I:2492/?q=Barer%20og%20puber,Barer og puber,Sammenlign,Overvåk,Finn lignende,"
            Driftsinntekter 2021

            9 993' NOK
        ",Driftsinntekter 2021,"
            Ansatte

            11
        ",Daglig leder,https://proff.no/rolle/hissain-alim/-/183827/,Hissain Alim,(f 1962),,"[10.744699, 59.913407]",10.744699,59.913407
22,Per på Hjørnet AS,https://proff.no/selskap/per-p%C3%A5-hj%C3%B8rnet-as/oslo/barer-og-puber/IF4H94Z01X8/,Mer info,Org nr 914 516 099,"C. J. Hambros plass 5, 0164 Oslo",tel:47786230,477 86 230,https://proff.no/karts%C3%B8k?id=IF4H94Z01X8,Vis i kart,https://proff.no/s%C3%B8k-etter-bransje/barer-og-puber/I:2492/?q=Barer%20og%20puber,Barer og puber,Sammenlign,Overvåk,Finn lignende,"
            Driftsinntekter 2021

            9 348' NOK
        ",Driftsinntekter 2021,"
            Ansatte

            14
        ",Daglig leder,https://proff.no/rolle/tadzedin-fetisi/-/985921/,Tadzedin Fetisi,(f 1974),,"[10.74086, 59.915408]",10.74086,59.915408
23,Buddha Biljard,https://proff.no/selskap/buddha-biljard/oslo/barer-og-puber/IGF99GJ01X8/,Mer info,Org nr 993 085 219,"Storgata 25, 0184 Oslo",tel:47300048,473 00 048,https://proff.no/karts%C3%B8k?id=IGF99GJ01X8,Vis i kart,https://proff.no/s%C3%B8k-etter-bransje/barer-og-puber/I:2492/?q=Barer%20og%20puber,Barer og puber,Sammenlign,Overvåk,Finn lignende,"
            Driftsinntekter 2021

            8 976' NOK
        ",Driftsinntekter 2021,"
            Ansatte

            7
        ",Daglig leder,https://proff.no/rolle/jan-petter-svendsen/-/953867/,Jan Petter Svendsen,(f 1967),Bb Storgata AS,"[10.751188, 59.914012]",10.751188,59.914012
24,Supreme Roastworks Grünerløkka AS,https://proff.no/selskap/supreme-roastworks-gr%C3%BCnerl%C3%B8kka-as/oslo/barer-og-puber/IFBB40K01X8/,Mer info,Org nr 925 986 836,"Thorvald Meyers gate 18 A, 0555 Oslo",tel:22714202,22 71 42 02,https://proff.no/karts%C3%B8k?id=IFBB40K01X8,Vis i kart,https://proff.no/s%C3%B8k-etter-bransje/barer-og-puber/I:2492/?q=Barer%20og%20puber,Barer og puber,Sammenlign,Overvåk,Finn lignende,"
            Driftsinntekter 2021

            8 853' NOK
        ",Driftsinntekter 2021,"
            Ansatte

            12
        ",Daglig leder,https://proff.no/rolle/odd-steinar-t%C3%B8llefsen/-/346181/,Odd-Steinar Tøllefsen,(f 1964),,"[10.759225, 59.9281]",10.759225,59.9281
25,Syng Mer AS,https://proff.no/selskap/syng-mer-as/oslo/barer-og-puber/IF5Y40G01X8/,Mer info,Org nr 916 982 224,"Arbeidersamfunnets plass 1, 0181 Oslo",tel:91585498,915 85 498,https://proff.no/karts%C3%B8k?id=IF5Y40G01X8,Vis i kart,https://proff.no/s%C3%B8k-etter-bransje/barer-og-puber/I:2492/?q=Barer%20og%20puber,Barer og puber,Sammenlign,Overvåk,Finn lignende,"
            Driftsinntekter 2021

            8 560' NOK
        ",Driftsinntekter 2021,"
            Ansatte

            27
        ",Daglig leder,https://proff.no/rolle/eirik-espolin-johnson/-/1391583/,Eirik Espolin Johnson,(f 1982),,"[10.751466, 59.91567]",10.751466,59.91567
26,Nlb Drift AS,https://proff.no/selskap/nlb-drift-as/oslo/barer-og-puber/IGC8DX301X8/,Mer info,Org nr 988 005 495,"Tordenskiolds gate 7-11, 0160 Oslo",tel:91315686,913 15 686,https://proff.no/karts%C3%B8k?id=IGC8DX301X8,Vis i kart,https://proff.no/s%C3%B8k-etter-bransje/barer-og-puber/I:2492/?q=Barer%20og%20puber,Barer og puber,Sammenlign,Overvåk,Finn lignende,"
            Driftsinntekter 2021

            8 413' NOK
        ",Driftsinntekter 2021,,Daglig leder,https://proff.no/rolle/remzi-idrizi/-/391520/,Remzi Idrizi,(f 1966),,"[10.735045, 59.974453]",10.735045,59.974453
27,Forest & Brown AS,https://proff.no/selskap/forest-brown-as/oslo/barer-og-puber/IGAGJ4U01X8/,Mer info,Org nr 985 026 270,"Niels Juels gate 31, 0257 Oslo",,,,,https://proff.no/s%C3%B8k-etter-bransje/barer-og-puber/I:2492/?q=Barer%20og%20puber,Barer og puber,Sammenlign,Overvåk,Finn lignende,"
            Driftsinntekter 2021

            7 582' NOK
        ",Driftsinntekter 2021,"
            Ansatte

            11
        ",Daglig leder,https://proff.no/rolle/jan-einar-skaug/-/205513/,Jan Einar Skaug,(f 1965),,"[10.714861, 59.91678]",10.714861,59.91678
28,Bar Boca,https://proff.no/selskap/bar-boca/oslo/barer-og-puber/IG5G0OW01X8/,Mer info,Org nr 976 604 288,"Thorvald Meyers gate 30, 0555 Oslo",tel:41164116,411 64 116,https://proff.no/karts%C3%B8k?id=IG5G0OW01X8,Vis i kart,https://proff.no/s%C3%B8k-etter-bransje/barer-og-puber/I:2492/?q=Barer%20og%20puber,Barer og puber,Sammenlign,Overvåk,Finn lignende,"
            Driftsinntekter 2021

            7 334' NOK
        ",Driftsinntekter 2021,"
            Ansatte

            23
        ",Daglig leder,https://proff.no/rolle/daniel-gjerde-fouche/-/1388769/,Daniel Gjerde Fouche,(f 1977),Art & Mat AS,"[10.759346, 59.925202]",10.759346,59.925202
29,F6,https://proff.no/selskap/f6/oslo/barer-og-puber/IF3SDYA01X8/,Mer info,Org nr 913 355 938,"Frognerveien 6, 0257 Oslo",tel:22555565,22 55 55 65,https://proff.no/karts%C3%B8k?id=IF3SDYA01X8,Vis i kart,https://proff.no/s%C3%B8k-etter-bransje/barer-og-puber/I:2492/?q=Barer%20og%20puber,Barer og puber,Sammenlign,Overvåk,Finn lignende,"
            Driftsinntekter 2021

            7 171' NOK
        ",Driftsinntekter 2021,"
            Ansatte

            21
        ",Daglig leder,https://proff.no/rolle/jesper-alexander-lennart-hjelm/-/1521090/,Jesper Alexander Lennart Hjelm,(f 1987),Frognerveien 6 AS,"[10.716577, 59.915716]",10.716577,59.915716
30,Burns Pub AS,https://proff.no/selskap/burns-pub-as/oslo/barer-og-puber/IE3T6ZU01X8/,Mer info,Org nr 852 927 402,"Stortingsgata 28, 0161 Oslo",tel:22832406,22 83 24 06,https://proff.no/karts%C3%B8k?id=IE3T6ZU01X8,Vis i kart,https://proff.no/s%C3%B8k-etter-bransje/barer-og-puber/I:2492/?q=Barer%20og%20puber,Barer og puber,Sammenlign,Overvåk,Finn lignende,"
            Driftsinntekter 2021

            7 060' NOK
        ",Driftsinntekter 2021,"
            Ansatte

            10
        ",Daglig leder,https://proff.no/rolle/bj%C3%B8rn-magnussen/-/69923/,Bjørn Magnussen,(f 1956),,"[10.732448, 59.914069]",10.732448,59.914069
31,Casa Isterica AS,https://proff.no/selskap/casa-isterica-as/oslo/barer-og-puber/IF9H3P501X8/,Mer info,Org nr 922 907 129,"Storgata 23, 0184 Oslo",tel:45876667,458 76 667,https://proff.no/karts%C3%B8k?id=IF9H3P501X8,Vis i kart,https://proff.no/s%C3%B8k-etter-bransje/barer-og-puber/I:2492/?q=Barer%20og%20puber,Barer og puber,Sammenlign,Overvåk,Finn lignende,"
            Driftsinntekter 2021

            6 927' NOK
        ",Driftsinntekter 2021,"
            Ansatte

            29
        ",Daglig leder,https://proff.no/rolle/antonio-corrado/-/2188284/,Antonio Corrado,(f 1987),,"[10.75077, 59.913892]",10.75077,59.913892
32,Kampen Kaffebar AS,https://proff.no/selskap/kampen-kaffebar-as/oslo/barer-og-puber/IF5DU5201X8/,Mer info,Org nr 916 036 310,"Normannsgata 18, 0655 Oslo",,,https://proff.no/karts%C3%B8k?id=IF5DU5201X8,Vis i kart,https://proff.no/s%C3%B8k-etter-bransje/barer-og-puber/I:2492/?q=Barer%20og%20puber,Barer og puber,Sammenlign,Overvåk,Finn lignende,"
            Driftsinntekter 2021

            6 694' NOK
        ",Driftsinntekter 2021,"
            Ansatte

            14
        ",Daglig leder,https://proff.no/rolle/philip-christopher-bernard-skopakow/-/2091813/,Philip Christopher Bernard Skopakow,(f 1984),,"[10.779989, 59.909756]",10.779989,59.909756
33,Fyrhuset Kuba Drift AS,https://proff.no/selskap/fyrhuset-kuba-drift-as/oslo/barer-og-puber/IF94KZN01X8/,Mer info,Org nr 922 323 011,"Maridalsveien 19, 0178 Oslo",,,https://proff.no/karts%C3%B8k?id=IF94KZN01X8,Vis i kart,https://proff.no/s%C3%B8k-etter-bransje/barer-og-puber/I:2492/?q=Barer%20og%20puber,Barer og puber,Sammenlign,Overvåk,Finn lignende,"
            Driftsinntekter 2021

            6 461' NOK
        ",Driftsinntekter 2021,"
            Ansatte

            12
        ",Daglig leder,https://proff.no/rolle/jo-bendik-olsen/-/2067309/,Jo Bendik Olsen,(f 1991),,"[10.751291, 59.923135]",10.751291,59.923135
34,Paddy`s Irish pub,https://proff.no/selskap/paddys-irish-pub/oslo/barer-og-puber/IG9I3AT01X8/,Mer info,Org nr 983 419 445,"Stortingsgata 28, 0161 Oslo",tel:22839676,22 83 96 76,https://proff.no/karts%C3%B8k?id=IG9I3AT01X8,Vis i kart,https://proff.no/s%C3%B8k-etter-bransje/barer-og-puber/I:2492/?q=Barer%20og%20puber,Barer og puber,Sammenlign,Overvåk,Finn lignende,"
            Driftsinntekter 2021

            6 372' NOK
        ",Driftsinntekter 2021,"
            Ansatte

            11
        ",Daglig leder,https://proff.no/rolle/geir-visnes/-/140101/,Geir Visnes,(f 1950),Gen Con Holding AS,"[10.732448, 59.914069]",10.732448,59.914069
35,Erlik Kaffe AS,https://proff.no/selskap/erlik-kaffe-as/oslo/barer-og-puber/IF6EUFD01X8/,Mer info,Org nr 917 762 953,"Akersgata 32, 0180 Oslo",tel:21380360,21 38 03 60,https://proff.no/karts%C3%B8k?id=IF6EUFD01X8,Vis i kart,https://proff.no/s%C3%B8k-etter-bransje/barer-og-puber/I:2492/?q=Barer%20og%20puber,Barer og puber,Sammenlign,Overvåk,Finn lignende,"
            Driftsinntekter 2021

            6 353' NOK
        ",Driftsinntekter 2021,"
            Ansatte

            32
        ",Daglig leder,https://proff.no/rolle/katrin-larsen/-/2163192/,Katrin Larsen,(f 1990),,"[10.743043, 59.914228]",10.743043,59.914228
36,Tømmerrenna Bar AS,https://proff.no/selskap/t%C3%B8mmerrenna-bar-as/oslo/barer-og-puber/IF7W11D01X8/,Mer info,Org nr 920 244 289,"Fridtjof Nansens plass 9, 0160 Oslo",,,https://proff.no/karts%C3%B8k?id=IF7W11D01X8,Vis i kart,https://proff.no/s%C3%B8k-etter-bransje/barer-og-puber/I:2492/?q=Barer%20og%20puber,Barer og puber,Sammenlign,Overvåk,Finn lignende,"
            Driftsinntekter 2021

            6 284' NOK
        ",Driftsinntekter 2021,"
            Ansatte

            14
        ",Daglig leder,https://proff.no/rolle/jo-bendik-olsen/-/2067309/,Jo Bendik Olsen,(f 1991),,"[10.734928, 59.912269]",10.734928,59.912269
37,Våps AS,https://proff.no/selskap/v%C3%A5ps-as/oslo/barer-og-puber/IDJML2U01X8/,Mer info,Org nr 819 026 742,"Rådhusgata 28, 0151 Oslo",,,https://proff.no/karts%C3%B8k?id=IDJML2U01X8,Vis i kart,https://proff.no/s%C3%B8k-etter-bransje/barer-og-puber/I:2492/?q=Barer%20og%20puber,Barer og puber,Sammenlign,Overvåk,Finn lignende,"
            Driftsinntekter 2021

            6 074' NOK
        ",Driftsinntekter 2021,"
            Ansatte

            14
        ",Styrets leder,https://proff.no/rolle/olaf-masterman-loly/-/351214/,Olaf Masterman Loly,(f 1961),,"[10.740738, 59.909831]",10.740738,59.909831
38,Stallgutten AS,https://proff.no/selskap/stallgutten-as/oslo/barer-og-puber/IF7R3GN01X8/,Mer info,Org nr 920 014 151,"Torshovgata 5, 0476 Oslo",tel:47022710,470 22 710,https://proff.no/karts%C3%B8k?id=IF7R3GN01X8,Vis i kart,https://proff.no/s%C3%B8k-etter-bransje/barer-og-puber/I:2492/?q=Barer%20og%20puber,Barer og puber,Sammenlign,Overvåk,Finn lignende,"
            Driftsinntekter 2021

            5 781' NOK
        ",Driftsinntekter 2021,"
            Ansatte

            13
        ",Daglig leder,https://proff.no/rolle/tom-fredrik-de-ridder/-/1621812/,Tom-Fredrik De Ridder,(f 1988),,"[10.763371, 59.933849]",10.763371,59.933849
39,Torggata Botaniske,https://proff.no/selskap/torggata-botaniske/oslo/barer-og-puber/IF3QQ9T01X8/,Mer info,Org nr 913 278 593,"Torggata 17, 0183 Oslo",tel:99324288,993 24 288,https://proff.no/karts%C3%B8k?id=IF3QQ9T01X8,Vis i kart,https://proff.no/s%C3%B8k-etter-bransje/barer-og-puber/I:2492/?q=Barer%20og%20puber,Barer og puber,Sammenlign,Overvåk,Finn lignende,"
            Driftsinntekter 2021

            5 589' NOK
        ",Driftsinntekter 2021,"
            Ansatte

            12
        ",Daglig leder,https://proff.no/rolle/elisabeth-bakke-hareide/-/1899044/,Elisabeth Bakke-Hareide,(f 1994),Vtvbar AS,"[10.751991, 59.916183]",10.751991,59.916183
40,Den Grimme Ælling AS,https://proff.no/selskap/den-grimme-%C3%A6lling-as/oslo/barer-og-puber/IF8KCWS01X8/,Mer info,Org nr 921 379 420,"Karl Johans gate 13, 0154 Oslo",,,https://proff.no/karts%C3%B8k?id=IF8KCWS01X8,Vis i kart,https://proff.no/s%C3%B8k-etter-bransje/barer-og-puber/I:2492/?q=Barer%20og%20puber,Barer og puber,Sammenlign,Overvåk,Finn lignende,"
            Driftsinntekter 2021

            5 419' NOK
        ",Driftsinntekter 2021,"
            Ansatte

            12
        ",Daglig leder,https://proff.no/rolle/yunus-yildiz/-/535088/,Yunus Yildiz,(f 1984),,"[10.744666, 59.912419]",10.744666,59.912419
41,Java Espressobar & Kaffeforretning AS,https://proff.no/selskap/java-espressobar-kaffeforretning-as/oslo/barer-og-puber/IGBQBT501X8/,Mer info,Org nr 987 162 953,"Ullevålsveien 47, 0171 Oslo",,,https://proff.no/karts%C3%B8k?id=IGBQBT501X8,Vis i kart,https://proff.no/s%C3%B8k-etter-bransje/barer-og-puber/I:2492/?q=Barer%20og%20puber,Barer og puber,Sammenlign,Overvåk,Finn lignende,"
            Driftsinntekter 2021

            5 418' NOK
        ",Driftsinntekter 2021,"
            Ansatte

            13
        ",Daglig leder,https://proff.no/rolle/dina-lohne-henden/-/1545698/,Dina Lohne Henden,(f 1996),,"[10.739551, 59.924312]",10.739551,59.924312
42,Creamy AS,https://proff.no/selskap/creamy-as/oslo/barer-og-puber/IF5Q6YC01X8/,Mer info,Org nr 916 612 788,"Tøyengata 13, 0190 Oslo",tel:90902121,909 02 121,https://proff.no/karts%C3%B8k?id=IF5Q6YC01X8,Vis i kart,https://proff.no/s%C3%B8k-etter-bransje/barer-og-puber/I:2492/?q=Barer%20og%20puber,Barer og puber,Sammenlign,Overvåk,Finn lignende,"
            Driftsinntekter 2021

            5 200' NOK
        ",Driftsinntekter 2021,"
            Ansatte

            16
        ",Daglig leder,https://proff.no/rolle/adnan-tasleem-chaudhary/-/1431922/,Adnan Tasleem Chaudhary,(f 1986),,"[10.765758, 59.913207]",10.765758,59.913207
43,King and Queen Musikk og Sportsbar AS,https://proff.no/selskap/king-and-queen-musikk-og-sportsbar-as/oslo/barer-og-puber/IF4T4I701X8/,Mer info,Org nr 915 069 967,"Brugata 14, 0186 Oslo",,,https://proff.no/karts%C3%B8k?id=IF4T4I701X8,Vis i kart,https://proff.no/s%C3%B8k-etter-bransje/barer-og-puber/I:2492/?q=Barer%20og%20puber,Barer og puber,Sammenlign,Overvåk,Finn lignende,"
            Driftsinntekter 2021

            5 158' NOK
        ",Driftsinntekter 2021,"
            Ansatte

            5
        ",Daglig leder,https://proff.no/rolle/babar-ali-butt/-/1924368/,Babar Ali Butt,(f 1972),,"[10.755403, 59.913884]",10.755403,59.913884
44,Bryggmester Bob AS,https://proff.no/selskap/bryggmester-bob-as/oslo/barer-og-puber/IF4N67B01X8/,Mer info,Org nr 914 792 231,"Markveien 57, 0550 Oslo",,,https://proff.no/karts%C3%B8k?id=IF4N67B01X8,Vis i kart,https://proff.no/s%C3%B8k-etter-bransje/barer-og-puber/I:2492/?q=Barer%20og%20puber,Barer og puber,Sammenlign,Overvåk,Finn lignende,"
            Driftsinntekter 2021

            5 042' NOK
        ",Driftsinntekter 2021,"
            Ansatte

            17
        ",Daglig leder,https://proff.no/rolle/andreas-martinussen/-/2311995/,Andreas Martinussen,(f 1987),,"[10.757226, 59.919959]",10.757226,59.919959
45,Mashed Potato Club AS,https://proff.no/selskap/mashed-potato-club-as/oslo/barer-og-puber/IF7EKKM01X8/,Mer info,Org nr 919 429 798,"Schwensens gate 5, 0170 Oslo",tel:91921920,919 21 920,https://proff.no/karts%C3%B8k?id=IF7EKKM01X8,Vis i kart,https://proff.no/s%C3%B8k-etter-bransje/barer-og-puber/I:2492/?q=Barer%20og%20puber,Barer og puber,Sammenlign,Overvåk,Finn lignende,"
            Driftsinntekter 2021

            4 835' NOK
        ",Driftsinntekter 2021,"
            Ansatte

            12
        ",Daglig leder,https://proff.no/rolle/jan-willy-hagen/-/1449558/,Jan Willy Hagen,(f 1965),,"[10.738011, 59.923339]",10.738011,59.923339
46,Trafalgar Pub AS,https://proff.no/selskap/trafalgar-pub-as/oslo/barer-og-puber/IFRILUP01X8/,Mer info,Org nr 953 210 401,"Hegdehaugsveien 32, 0352 Oslo",tel:22468691,22 46 86 91,https://proff.no/karts%C3%B8k?id=IFRILUP01X8,Vis i kart,https://proff.no/s%C3%B8k-etter-bransje/barer-og-puber/I:2492/?q=Barer%20og%20puber,Barer og puber,Sammenlign,Overvåk,Finn lignende,"
            Driftsinntekter 2021

            4 720' NOK
        ",Driftsinntekter 2021,"
            Ansatte

            1
        ",Daglig leder,https://proff.no/rolle/zahid-zery-iqbal/-/512171/,Zahid Zery Iqbal,(f 1952),,"[10.72649, 59.92181]",10.72649,59.92181
47,Elmers Pub og Biljard,https://proff.no/selskap/elmers-pub-og-biljard/oslo/barer-og-puber/IF6Q5NA01X8/,Mer info,Org nr 918 290 710,"Hagegata 22, 0653 Oslo",tel:22717470,22 71 74 70,https://proff.no/karts%C3%B8k?id=IF6Q5NA01X8,Vis i kart,https://proff.no/s%C3%B8k-etter-bransje/barer-og-puber/I:2492/?q=Barer%20og%20puber,Barer og puber,Sammenlign,Overvåk,Finn lignende,"
            Driftsinntekter 2021

            4 717' NOK
        ",Driftsinntekter 2021,"
            Ansatte

            19
        ",Daglig leder,https://proff.no/rolle/rolf-gunnar-sedsb%C3%B8e-jensen/-/400702/,Rolf Gunnar Sedsbøe Jensen,(f 1961),Skatten Holding AS,Error,E,r
48,Pollett Bislett AS,https://proff.no/selskap/pollett-bislett-as/oslo/barer-og-puber/IF9FYKJ01X8/,Mer info,Org nr 922 853 827,"Pilestredet 60, 0167 Oslo",,,https://proff.no/karts%C3%B8k?id=IF9FYKJ01X8,Vis i kart,https://proff.no/s%C3%B8k-etter-bransje/barer-og-puber/I:2492/?q=Barer%20og%20puber,Barer og puber,Sammenlign,Overvåk,Finn lignende,"
            Driftsinntekter 2021

            4 583' NOK
        ",Driftsinntekter 2021,"
            Ansatte

            18
        ",Daglig leder,https://proff.no/rolle/hans-richard-jarn/-/645127/,Hans Richard Jarn,(f 1966),,"[10.731263, 59.925008]",10.731263,59.925008
49,Ruinen bar & café,https://proff.no/selskap/ruinen-bar-caf%C3%A9/oslo/barer-og-puber/IEHW4K001X8/,Mer info,Org nr 876 578 832,"St. Halvards plass 2, 0192 Oslo",tel:22570255,22 57 02 55,https://proff.no/karts%C3%B8k?id=IEHW4K001X8,Vis i kart,https://proff.no/s%C3%B8k-etter-bransje/barer-og-puber/I:2492/?q=Barer%20og%20puber,Barer og puber,Sammenlign,Overvåk,Finn lignende,"
            Driftsinntekter 2003

            4 392' NOK
        ",Driftsinntekter 2003,"
            Ansatte

            2
        ",Innehaver,https://proff.no/rolle/mohammad-shabbir/-/325588/,Mohammad Shabbir,(f 1966),Ruinen v/Shabbir,"[10.768352, 59.906481]",10.768352,59.906481
50,Ophelia Bar Diner Club,https://proff.no/selskap/ophelia-bar-diner-club/oslo/barer-og-puber/IFMIEFR01X8/,Mer info,Org nr 944 802 711,"Holbergs gate 19, 0166 Oslo",tel:40608040,406 08 040,https://proff.no/karts%C3%B8k?id=IFMIEFR01X8,Vis i kart,https://proff.no/s%C3%B8k-etter-bransje/barer-og-puber/I:2492/?q=Barer%20og%20puber,Barer og puber,Sammenlign,Overvåk,Finn lignende,"
            Driftsinntekter 2002

            4 232' NOK
        ",Driftsinntekter 2002,"
            Ansatte

            20
        ",Daglig leder,https://proff.no/rolle/gino-naim-alickaj/-/142980/,Gino Naim Alickaj,(f 1956),Ophelia Bar Diner Club Gino Alickaj,Error,E,r
51,Under The Bridge AS,https://proff.no/selskap/under-the-bridge-as/oslo/barer-og-puber/IGIG3VB01X8/,Mer info,Org nr 998 443 415,"Karl Johans gate 27, 0159 Oslo",,,https://proff.no/karts%C3%B8k?id=IGIG3VB01X8,Vis i kart,https://proff.no/s%C3%B8k-etter-bransje/barer-og-puber/I:2492/?q=Barer%20og%20puber,Barer og puber,Sammenlign,Overvåk,Finn lignende,"
            Driftsinntekter 2021

            4 204' NOK
        ",Driftsinntekter 2021,,Daglig leder,https://proff.no/rolle/dimitri-yogaratnam/-/1491829/,Dimitri Yogaratnam,(f 1980),,"[10.73997, 59.913595]",10.73997,59.913595
52,Kaffefuglen A/S,https://proff.no/selskap/kaffefuglen-as/oslo/barer-og-puber/IF3QU0P01X8/,Mer info,Org nr 913 283 449,"Universitetsgata 2, 0164 Oslo",,,https://proff.no/karts%C3%B8k?id=IF3QU0P01X8,Vis i kart,https://proff.no/s%C3%B8k-etter-bransje/barer-og-puber/I:2492/?q=Barer%20og%20puber,Barer og puber,Sammenlign,Overvåk,Finn lignende,"
            Driftsinntekter 2021

            4 111' NOK
        ",Driftsinntekter 2021,"
            Ansatte

            28
        ",Daglig leder,https://proff.no/rolle/cadre-yngve-hanson/-/1751319/,Cadre Yngve Hanson,(f 1980),Kaffefuglen AS,"[10.740413, 59.916794]",10.740413,59.916794
53,Roif AS,https://proff.no/selskap/roif-as/oslo/barer-og-puber/IF8SUX001X8/,Mer info,Org nr 921 776 004,"Toftes gate 30, 0556 Oslo",tel:40845701,408 45 701,https://proff.no/karts%C3%B8k?id=IF8SUX001X8,Vis i kart,https://proff.no/s%C3%B8k-etter-bransje/barer-og-puber/I:2492/?q=Barer%20og%20puber,Barer og puber,Sammenlign,Overvåk,Finn lignende,"
            Driftsinntekter 2021

            4 081' NOK
        ",Driftsinntekter 2021,"
            Ansatte

            22
        ",Styrets leder,https://proff.no/rolle/guro-trygsland/-/2061044/,Guro Trygsland,(f 1992),,"[10.761269, 59.927054]",10.761269,59.927054
54,"The Villa, Oslo Dancing AS",https://proff.no/selskap/the-villa-oslo-dancing-as/oslo/barer-og-puber/IGH3MJS01X8/,Mer info,Org nr 996 181 480,"Møllergata 23, 0179 Oslo",,,https://proff.no/karts%C3%B8k?id=IGH3MJS01X8,Vis i kart,https://proff.no/s%C3%B8k-etter-bransje/barer-og-puber/I:2492/?q=Barer%20og%20puber,Barer og puber,Sammenlign,Overvåk,Finn lignende,"
            Driftsinntekter 2021

            4 032' NOK
        ",Driftsinntekter 2021,"
            Ansatte

            31
        ",Daglig leder,https://proff.no/rolle/ketil-skarshaug/-/254468/,Ketil Skarshaug,(f 1973),,"[10.74856, 59.915635]",10.74856,59.915635
55,Oslo Mikrobryggeri AS,https://proff.no/selskap/oslo-mikrobryggeri-as/oslo/barer-og-puber/IFXR75U01X8/,Mer info,Org nr 963 688 962,"Bogstadveien 6, 0355 Oslo",tel:22569776,22 56 97 76,https://proff.no/karts%C3%B8k?id=IFXR75U01X8,Vis i kart,https://proff.no/s%C3%B8k-etter-bransje/barer-og-puber/I:2492/?q=Barer%20og%20puber,Barer og puber,Sammenlign,Overvåk,Finn lignende,"
            Driftsinntekter 2021

            3 884' NOK
        ",Driftsinntekter 2021,"
            Ansatte

            19
        ",Daglig leder,https://proff.no/rolle/frithjof-boye-hungnes/-/131737/,Frithjof Boye Hungnes,(f 1961),,"[10.724173, 59.924352]",10.724173,59.924352
56,Hytta Bar,https://proff.no/selskap/hytta-bar/oslo/barer-og-puber/IG7IABJ01X8/,Mer info,Org nr 980 069 311,"Thorvald Meyers gate 70, 0552 Oslo",tel:32231981,32 23 19 81,https://proff.no/karts%C3%B8k?id=IG7IABJ01X8,Vis i kart,https://proff.no/s%C3%B8k-etter-bransje/barer-og-puber/I:2492/?q=Barer%20og%20puber,Barer og puber,Sammenlign,Overvåk,Finn lignende,"
            Driftsinntekter 2021

            3 764' NOK
        ",Driftsinntekter 2021,"
            Ansatte

            11
        ",Daglig leder,https://proff.no/rolle/hamid-reza-taheri/-/159538/,Hamid Reza Taheri,(f 1964),Fa So La Bar DA,"[10.759636, 59.920196]",10.759636,59.920196
57,The Coffee Club AS,https://proff.no/selskap/the-coffee-club-as/oslo/barer-og-puber/IGAYX8U01X8-1/,Mer info,Org nr 985 884 366,"Fridtjof Nansens plass 2, 0160 Oslo",tel:45657627,456 57 627,https://proff.no/karts%C3%B8k?id=IGAYX8U01X8-1,Vis i kart,https://proff.no/s%C3%B8k-etter-bransje/barer-og-puber/I:2492/?q=Barer%20og%20puber,Barer og puber,Sammenlign,Overvåk,Finn lignende,"
            Driftsinntekter 2021

            3 761' NOK
        ",Driftsinntekter 2021,"
            Ansatte

            11
        ",Daglig leder,https://proff.no/rolle/kjell-thomas-berg/-/1521097/,Kjell Thomas Berg,(f 1956),,"[10.733443, 59.912945]",10.733443,59.912945
58,The Fragrance of the Heart,https://proff.no/selskap/the-fragrance-of-the-heart/oslo/barer-og-puber/IGAYX8U01X8/,Mer info,Org nr 985 884 366,"Fridtjof Nansens plass 2, 0160 Oslo",tel:22332310,22 33 23 10,https://proff.no/karts%C3%B8k?id=IGAYX8U01X8,Vis i kart,https://proff.no/s%C3%B8k-etter-bransje/barer-og-puber/I:2492/?q=Barer%20og%20puber,Barer og puber,Sammenlign,Overvåk,Finn lignende,"
            Driftsinntekter 2021

            3 761' NOK
        ",Driftsinntekter 2021,"
            Ansatte

            11
        ",Daglig leder,https://proff.no/rolle/kjell-thomas-berg/-/1521097/,Kjell Thomas Berg,(f 1956),The Coffee Club AS,"[10.733443, 59.912945]",10.733443,59.912945
59,Is Companiet AS,https://proff.no/selskap/is-companiet-as/oslo/barer-og-puber/IDNIW9201X8/,Mer info,Org nr 825 573 062,"Stranden 33 A, 0250 Oslo",,,https://proff.no/karts%C3%B8k?id=IDNIW9201X8,Vis i kart,https://proff.no/s%C3%B8k-etter-bransje/barer-og-puber/I:2492/?q=Barer%20og%20puber,Barer og puber,Sammenlign,Overvåk,Finn lignende,"
            Driftsinntekter 2021

            3 748' NOK
        ",Driftsinntekter 2021,"
            Ansatte

            10
        ",Daglig leder,https://proff.no/rolle/ramazan-uysal/-/385071/,Ramazan Uysal,(f 1964),,"[10.735045, 59.974453]",10.735045,59.974453
60,Lincoln Pub,https://proff.no/selskap/lincoln-pub/oslo/barer-og-puber/IGAP6JB01X8/,Mer info,Org nr 985 429 847,"Vogts gate 43, 0474 Oslo",tel:22377100,22 37 71 00,https://proff.no/karts%C3%B8k?id=IGAP6JB01X8,Vis i kart,https://proff.no/s%C3%B8k-etter-bransje/gatekj%C3%B8kken/I:649/?q=Gatekj%C3%B8kken,Gatekjøkken,Sammenlign,Overvåk,Finn lignende,"
            Driftsinntekter 2021

            3 696' NOK
        ",Driftsinntekter 2021,"
            Ansatte

            12
        ",Daglig leder,https://proff.no/rolle/wenche-%C3%B8yerhamn-magnussen/-/1324056/,Wenche Øyerhamn Magnussen,(f 1965),Lincoln Pub AS,"[10.763881, 59.933476]",10.763881,59.933476
61,Neubar AS,https://proff.no/selskap/neubar-as/oslo/barer-og-puber/IF7H50F01X8/,Mer info,Org nr 919 549 599,"Bjerregaards gate 5 A, 0172 Oslo",,,https://proff.no/karts%C3%B8k?id=IF7H50F01X8,Vis i kart,https://proff.no/s%C3%B8k-etter-bransje/barer-og-puber/I:2492/?q=Barer%20og%20puber,Barer og puber,Sammenlign,Overvåk,Finn lignende,"
            Driftsinntekter 2021

            3 645' NOK
        ",Driftsinntekter 2021,"
            Ansatte

            18
        ",Styrets leder,https://proff.no/rolle/alexander-kloster-jensen/-/4538/,Alexander Kloster-Jensen,(f 1974),,"[10.741651, 59.923497]",10.741651,59.923497
62,Blue Night AS,https://proff.no/selskap/blue-night-as/oslo/barer-og-puber/IF4ATHT01X8/,Mer info,Org nr 914 215 889,"Rådhusgata 4, 0151 Oslo",tel:47625064,476 25 064,https://proff.no/karts%C3%B8k?id=IF4ATHT01X8,Vis i kart,https://proff.no/s%C3%B8k-etter-bransje/barer-og-puber/I:2492/?q=Barer%20og%20puber,Barer og puber,Sammenlign,Overvåk,Finn lignende,"
            Driftsinntekter 2021

            3 620' NOK
        ",Driftsinntekter 2021,"
            Ansatte

            5
        ",Daglig leder,https://proff.no/rolle/thanushan-kumaran-rajanayagam/-/1700866/,Thanushan Kumaran Rajanayagam,(f 1973),,"[10.745524, 59.908663]",10.745524,59.908663
63,Hypogeum AS,https://proff.no/selskap/hypogeum-as/oslo/barer-og-puber/IFABX7B01X8/,Mer info,Org nr 924 345 047,"Karl Johans gate 45, 0162 Oslo",,,https://proff.no/karts%C3%B8k?id=IFABX7B01X8,Vis i kart,https://proff.no/s%C3%B8k-etter-bransje/barer-og-puber/I:2492/?q=Barer%20og%20puber,Barer og puber,Sammenlign,Overvåk,Finn lignende,"
            Driftsinntekter 2021

            3 488' NOK
        ",Driftsinntekter 2021,"
            Ansatte

            25
        ",Daglig leder,https://proff.no/rolle/martin-rustad-dynna/-/318142/,Martin Rustad Dynna,(f 1971),,"[10.736641, 59.914573]",10.736641,59.914573
64,Odd Cocktailbar AS,https://proff.no/selskap/odd-cocktailbar-as/oslo/barer-og-puber/IF8JRB901X8/,Mer info,Org nr 921 351 429,"Parkveien 25, 0350 Oslo",,,https://proff.no/karts%C3%B8k?id=IF8JRB901X8,Vis i kart,https://proff.no/s%C3%B8k-etter-bransje/barer-og-puber/I:2492/?q=Barer%20og%20puber,Barer og puber,Sammenlign,Overvåk,Finn lignende,"
            Driftsinntekter 2021

            3 428' NOK
        ",Driftsinntekter 2021,,Daglig leder,https://proff.no/rolle/frode-veie/-/134181/,Frode Veie,(f 1972),,"[10.72815, 59.920696]",10.72815,59.920696
65,Barcode Pubdrift AS,https://proff.no/selskap/barcode-pubdrift-as/oslo/barer-og-puber/IF6N2A101X8/,Mer info,Org nr 918 146 377,"Karl Johans gate 27, 0159 Oslo",,,https://proff.no/karts%C3%B8k?id=IF6N2A101X8,Vis i kart,https://proff.no/s%C3%B8k-etter-bransje/barer-og-puber/I:2492/?q=Barer%20og%20puber,Barer og puber,Sammenlign,Overvåk,Finn lignende,"
            Driftsinntekter 2021

            3 391' NOK
        ",Driftsinntekter 2021,,Daglig leder,https://proff.no/rolle/morten-guldvik/-/906603/,Morten Guldvik,(f 1984),,"[10.73997, 59.913595]",10.73997,59.913595
66,Sagene P&P AS,https://proff.no/selskap/sagene-pp-as/oslo/barer-og-puber/IF634KF01X8/,Mer info,Org nr 917 216 223,"Kjelsåsveien 71, 0491 Oslo",tel:91609555,916 09 555,https://proff.no/karts%C3%B8k?id=IF634KF01X8,Vis i kart,https://proff.no/s%C3%B8k-etter-bransje/barer-og-puber/I:2492/?q=Barer%20og%20puber,Barer og puber,Sammenlign,Overvåk,Finn lignende,"
            Driftsinntekter 2021

            3 344' NOK
        ",Driftsinntekter 2021,"
            Ansatte

            15
        ",Daglig leder,https://proff.no/rolle/irene-selle/-/1206173/,Irene Selle,(f 1977),,"[10.793773, 59.953399]",10.793773,59.953399
67,Øltorget AS,https://proff.no/selskap/%C3%B8ltorget-as/oslo/barer-og-puber/IF4NPOF01X8/,Mer info,Org nr 914 817 471,"Vulkan 5, 0178 Oslo",tel:41688961,416 88 961,https://proff.no/karts%C3%B8k?id=IF4NPOF01X8,Vis i kart,https://proff.no/s%C3%B8k-etter-bransje/barer-og-puber/I:2492/?q=Barer%20og%20puber,Barer og puber,Sammenlign,Overvåk,Finn lignende,"
            Driftsinntekter 2021

            3 288' NOK
        ",Driftsinntekter 2021,"
            Ansatte

            11
        ",Daglig leder,https://proff.no/rolle/kim-daniel-bergersen/-/1280652/,Kim Daniel Bergersen,(f 1988),,"[10.751924, 59.922427]",10.751924,59.922427
68,Generasjonsbaren AS,https://proff.no/selskap/generasjonsbaren-as/oslo/barer-og-puber/IDK1R3801X8/,Mer info,Org nr 819 734 372,"Torggata 13 C, 0181 Oslo",tel:97367606,973 67 606,https://proff.no/karts%C3%B8k?id=IDK1R3801X8,Vis i kart,https://proff.no/s%C3%B8k-etter-bransje/barer-og-puber/I:2492/?q=Barer%20og%20puber,Barer og puber,Sammenlign,Overvåk,Finn lignende,"
            Driftsinntekter 2021

            3 212' NOK
        ",Driftsinntekter 2021,"
            Ansatte

            21
        ",Daglig leder,https://proff.no/rolle/alexander-joe-smyth-olsen/-/2275189/,Alexander Joe Smyth-Olsen,(f 1988),,"[10.750261, 59.915163]",10.750261,59.915163
69,Tikipop AS,https://proff.no/selskap/tikipop-as/oslo/barer-og-puber/IGDYKPN01X8/,Mer info,Org nr 990 906 971,"Thorvald Meyers gate 32, 0555 Oslo",tel:22717571,22 71 75 71,https://proff.no/karts%C3%B8k?id=IGDYKPN01X8,Vis i kart,https://proff.no/s%C3%B8k-etter-bransje/barer-og-puber/I:2492/?q=Barer%20og%20puber,Barer og puber,Sammenlign,Overvåk,Finn lignende,"
            Driftsinntekter 2021

            3 211' NOK
        ",Driftsinntekter 2021,"
            Ansatte

            20
        ",Daglig leder,https://proff.no/rolle/marthe-emilie-lomsdalen/-/2277194/,Marthe Emilie Lomsdalen,(f 1990),,"[10.759529, 59.924931]",10.759529,59.924931
70,Aku Aku Tiki Bar,https://proff.no/selskap/aku-aku-tiki-bar/oslo/barer-og-puber/IGDYKPN01X8-1/,Mer info,Org nr 990 906 971,"Thorvald Meyers gate 32, 0555 Oslo",,,https://proff.no/karts%C3%B8k?id=IGDYKPN01X8-1,Vis i kart,https://proff.no/s%C3%B8k-etter-bransje/barer-og-puber/I:2492/?q=Barer%20og%20puber,Barer og puber,Sammenlign,Overvåk,Finn lignende,"
            Driftsinntekter 2021

            3 211' NOK
        ",Driftsinntekter 2021,"
            Ansatte

            20
        ",Daglig leder,https://proff.no/rolle/marthe-emilie-lomsdalen/-/2277194/,Marthe Emilie Lomsdalen,(f 1990),Tikipop AS,"[10.759529, 59.924931]",10.759529,59.924931
71,Perestrojka AS,https://proff.no/selskap/perestrojka-as/oslo/barer-og-puber/IF4T74001X8/,Mer info,Org nr 915 073 344,"Storgata 13, 0155 Oslo",,,https://proff.no/karts%C3%B8k?id=IF4T74001X8,Vis i kart,https://proff.no/s%C3%B8k-etter-bransje/barer-og-puber/I:2492/?q=Barer%20og%20puber,Barer og puber,Sammenlign,Overvåk,Finn lignende,"
            Driftsinntekter 2021

            3 017' NOK
        ",Driftsinntekter 2021,"
            Ansatte

            18
        ",Daglig leder,https://proff.no/rolle/nicolai-aanonsen-engesvik/-/534635/,Nicolai Aanonsen Engesvik,(f 1984),,"[10.748869, 59.913808]",10.748869,59.913808
72,Ostara Bar AS,https://proff.no/selskap/ostara-bar-as/oslo/barer-og-puber/IF9DCAG01X8/,Mer info,Org nr 922 731 640,"Kirkegata 20, 0153 Oslo",,,https://proff.no/karts%C3%B8k?id=IF9DCAG01X8,Vis i kart,https://proff.no/s%C3%B8k-etter-bransje/barer-og-puber/I:2492/?q=Barer%20og%20puber,Barer og puber,Sammenlign,Overvåk,Finn lignende,"
            Driftsinntekter 2021

            3 014' NOK
        ",Driftsinntekter 2021,"
            Ansatte

            19
        ",Daglig leder,https://proff.no/rolle/sofia-hegstad-su/-/2027517/,Sofia Hegstad Su,(f 1992),,"[10.744436, 59.910779]",10.744436,59.910779
73,Mocca Kaffebar & Brenneri AS,https://proff.no/selskap/mocca-kaffebar-brenneri-as/oslo/barer-og-puber/IG8TUB901X8/,Mer info,Org nr 982 288 053,"Niels Juels gate 70, 0259 Oslo",tel:22555518,22 55 55 18,https://proff.no/karts%C3%B8k?id=IG8TUB901X8,Vis i kart,https://proff.no/s%C3%B8k-etter-bransje/barer-og-puber/I:2492/?q=Barer%20og%20puber,Barer og puber,Sammenlign,Overvåk,Finn lignende,"
            Driftsinntekter 2021

            3 011' NOK
        ",Driftsinntekter 2021,"
            Ansatte

            12
        ",Daglig leder,https://proff.no/rolle/ivar-bowitz/-/1428962/,Ivar Bowitz,(f 1982),,"[10.718594, 59.919444]",10.718594,59.919444
74,Victor's vinbar,https://proff.no/selskap/victors-vinbar/oslo/barer-og-puber/IF8UR1Q01X8/,Mer info,Org nr 921 864 302,"Skovveien 15, 0257 Oslo",tel:90957977,909 57 977,https://proff.no/karts%C3%B8k?id=IF8UR1Q01X8,Vis i kart,https://proff.no/s%C3%B8k-etter-bransje/barer-og-puber/I:2492/?q=Barer%20og%20puber,Barer og puber,Sammenlign,Overvåk,Finn lignende,"
            Driftsinntekter 2021

            2 989' NOK
        ",Driftsinntekter 2021,"
            Ansatte

            7
        ",Daglig leder,https://proff.no/rolle/paal-sletten/-/1858801/,Paal Sletten,(f 1965),Victor's AS,"[10.718403, 59.917812]",10.718403,59.917812
75,Ek Bar AS,https://proff.no/selskap/ek-bar-as/oslo/barer-og-puber/IF9ZNXT01X8/,Mer info,Org nr 923 773 169,"Youngstorget 1, 0181 Oslo",tel:45513502,455 13 502,https://proff.no/karts%C3%B8k?id=IF9ZNXT01X8,Vis i kart,https://proff.no/s%C3%B8k-etter-bransje/barer-og-puber/I:2492/?q=Barer%20og%20puber,Barer og puber,Sammenlign,Overvåk,Finn lignende,"
            Driftsinntekter 2021

            2 806' NOK
        ",Driftsinntekter 2021,"
            Ansatte

            22
        ",Daglig leder,https://proff.no/rolle/nils-gustaf-emil-nilsson/-/2165448/,Nils-Gustaf Emil Nilsson,(f 1991),,"[10.75012, 59.914781]",10.75012,59.914781
76,Sankt Amand AS,https://proff.no/selskap/sankt-amand-as/oslo/barer-og-puber/IFBMF5M01X8/,Mer info,Org nr 926 514 490,"Økernveien 9, 0653 Oslo",,,https://proff.no/karts%C3%B8k?id=IFBMF5M01X8,Vis i kart,https://proff.no/s%C3%B8k-etter-bransje/barer-og-puber/I:2492/?q=Barer%20og%20puber,Barer og puber,Sammenlign,Overvåk,Finn lignende,"
            Driftsinntekter 2021

            2 574' NOK
        ",Driftsinntekter 2021,"
            Ansatte

            8
        ",Daglig leder,https://proff.no/rolle/rikke-kj%C3%B8len/-/1291133/,Rikke Kjølen,(f 1987),,"[10.776167, 59.914864]",10.776167,59.914864
77,Rett Inn Bar og Cafe AS,https://proff.no/selskap/rett-inn-bar-og-cafe-as/oslo/barer-og-puber/IF6YJHU01X8/,Mer info,Org nr 918 681 906,"Storgata 39, 0182 Oslo",tel:94078622,940 78 622,https://proff.no/karts%C3%B8k?id=IF6YJHU01X8,Vis i kart,https://proff.no/s%C3%B8k-etter-bransje/barer-og-puber/I:2492/?q=Barer%20og%20puber,Barer og puber,Sammenlign,Overvåk,Finn lignende,"
            Driftsinntekter 2021

            2 550' NOK
        ",Driftsinntekter 2021,"
            Ansatte

            6
        ",Daglig leder,https://proff.no/rolle/waqas-ahmed/-/1150051/,Waqas Ahmed,(f 1981),,"[10.754681, 59.915124]",10.754681,59.915124
78,Elefanten Romsås,https://proff.no/selskap/elefanten-roms%C3%A5s/oslo/barer-og-puber/IF9QSO801X8/,Mer info,Org nr 923 359 400,"Romsås Senter 1, 0970 Oslo",tel:98077630,980 77 630,https://proff.no/karts%C3%B8k?id=IF9QSO801X8,Vis i kart,https://proff.no/s%C3%B8k-etter-bransje/barer-og-puber/I:2492/?q=Barer%20og%20puber,Barer og puber,Sammenlign,Overvåk,Finn lignende,"
            Driftsinntekter 2021

            2 527' NOK
        ",Driftsinntekter 2021,"
            Ansatte

            6
        ",Daglig leder,https://proff.no/rolle/ali-abbas-malik/-/2164114/,Ali Abbas Malik,(f 1991),Romsås Bar & Cafe AS,"[10.892858, 59.963161]",10.892858,59.963161
79,Raw Mango AS,https://proff.no/selskap/raw-mango-as/oslo/barer-og-puber/IDNF4M001X8/,Mer info,Org nr 825 397 272,"Vulkan 5, 0178 Oslo",tel:45418671,454 18 671,https://proff.no/karts%C3%B8k?id=IDNF4M001X8,Vis i kart,https://proff.no/s%C3%B8k-etter-bransje/barer-og-puber/I:2492/?q=Barer%20og%20puber,Barer og puber,Sammenlign,Overvåk,Finn lignende,"
            Driftsinntekter 2021

            2 470' NOK
        ",Driftsinntekter 2021,"
            Ansatte

            10
        ",Daglig leder,https://proff.no/rolle/neha-vij/-/1948966/,Neha Vij,(f 1990),,"[10.751924, 59.922427]",10.751924,59.922427
80,The Smoothie Factory AS,https://proff.no/selskap/the-smoothie-factory-as/oslo/barer-og-puber/IF92WN801X8/,Mer info,Org nr 922 244 804,"Borgenveien 50, 0373 Oslo",,,,,https://proff.no/s%C3%B8k-etter-bransje/barer-og-puber/I:2492/?q=Barer%20og%20puber,Barer og puber,Sammenlign,Overvåk,Finn lignende,"
            Driftsinntekter 2020

            2 418' NOK
        ",Driftsinntekter 2020,,Daglig leder,https://proff.no/rolle/william-vardund/-/1673836/,William Vardund,(f 1990),,"[10.703701, 59.943321]",10.703701,59.943321
81,Mezcal AS,https://proff.no/selskap/mezcal-as/oslo/barer-og-puber/IFAWZOX01X8/,Mer info,Org nr 925 328 049,"Osterhaus' gate 11, 0183 Oslo",,,https://proff.no/karts%C3%B8k?id=IFAWZOX01X8,Vis i kart,https://proff.no/s%C3%B8k-etter-bransje/barer-og-puber/I:2492/?q=Barer%20og%20puber,Barer og puber,Sammenlign,Overvåk,Finn lignende,"
            Driftsinntekter 2021

            2 298' NOK
        ",Driftsinntekter 2021,"
            Ansatte

            14
        ",Styrets leder,https://proff.no/rolle/erik-eugen-bruun/-/113776/,Erik Eugen Bruun,(f 1972),,"[10.753301, 59.916563]",10.753301,59.916563
82,Oransjevin AS,https://proff.no/selskap/oransjevin-as/oslo/barer-og-puber/IF5XY2B01X8/,Mer info,Org nr 916 974 515,"Torshovgata 15, 0476 Oslo",,,https://proff.no/karts%C3%B8k?id=IF5XY2B01X8,Vis i kart,https://proff.no/s%C3%B8k-etter-bransje/barer-og-puber/I:2492/?q=Barer%20og%20puber,Barer og puber,Sammenlign,Overvåk,Finn lignende,"
            Driftsinntekter 2021

            2 235' NOK
        ",Driftsinntekter 2021,"
            Ansatte

            9
        ",Daglig leder,https://proff.no/rolle/thomas-tylman/-/932292/,Thomas Tylman,(f 1980),,"[10.766469, 59.932966]",10.766469,59.932966
83,Tamara Pub AS,https://proff.no/selskap/tamara-pub-as/oslo/barer-og-puber/IF8P8NZ01X8/,Mer info,Org nr 921 607 199,"Toftes gate 50 A, 0556 Oslo",,,https://proff.no/karts%C3%B8k?id=IF8P8NZ01X8,Vis i kart,https://proff.no/s%C3%B8k-etter-bransje/barer-og-puber/I:2492/?q=Barer%20og%20puber,Barer og puber,Sammenlign,Overvåk,Finn lignende,"
            Driftsinntekter 2021

            2 181' NOK
        ",Driftsinntekter 2021,"
            Ansatte

            10
        ",Daglig leder,https://proff.no/rolle/sharareh-shadnazar/-/413653/,Sharareh Shadnazar,(f 1979),,"[10.761557, 59.925721]",10.761557,59.925721
84,Mariannes Cafe,https://proff.no/selskap/mariannes-cafe/oslo/barer-og-puber/IG9SPWJ01X8/,Mer info,Org nr 983 915 299,"Edvard Munchs vei 47, 1063 Oslo",tel:98848243,988 48 243,https://proff.no/karts%C3%B8k?id=IG9SPWJ01X8,Vis i kart,https://proff.no/s%C3%B8k-etter-bransje/barer-og-puber/I:2492/?q=Barer%20og%20puber,Barer og puber,Sammenlign,Overvåk,Finn lignende,"
            Driftsinntekter 2021

            2 087' NOK
        ",Driftsinntekter 2021,"
            Ansatte

            4
        ",Innehaver,https://proff.no/rolle/marianne-svendsen-iqbal/-/311973/,Marianne Svendsen Iqbal,(f 1962),Mariannes Cafe Marianne Svendsen Iqbal,"[10.915958, 59.936429]",10.915958,59.936429
85,The Star AS,https://proff.no/selskap/the-star-as/oslo/barer-og-puber/IF8F0OF01X8/,Mer info,Org nr 921 130 287,"Arbeidergata 2, 0159 Oslo",,,https://proff.no/karts%C3%B8k?id=IF8F0OF01X8,Vis i kart,https://proff.no/s%C3%B8k-etter-bransje/barer-og-puber/I:2492/?q=Barer%20og%20puber,Barer og puber,Sammenlign,Overvåk,Finn lignende,"
            Driftsinntekter 2020

            2 018' NOK
        ",Driftsinntekter 2020,"
            Ansatte

            8
        ",Daglig leder,https://proff.no/rolle/bj%C3%B8rn-dingstad/-/66157/,Bjørn Dingstad,(f 1959),,"[10.74084, 59.914499]",10.74084,59.914499
86,Karaoke Sport AS,https://proff.no/selskap/karaoke-sport-as/oslo/barer-og-puber/IF9V92B01X8/,Mer info,Org nr 923 567 267,"Grønlandsleiret 17 A, 0190 Oslo",,,https://proff.no/karts%C3%B8k?id=IF9V92B01X8,Vis i kart,https://proff.no/s%C3%B8k-etter-bransje/barer-og-puber/I:2492/?q=Barer%20og%20puber,Barer og puber,Sammenlign,Overvåk,Finn lignende,"
            Driftsinntekter 2021

            1 788' NOK
        ",Driftsinntekter 2021,"
            Ansatte

            8
        ",Daglig leder,https://proff.no/rolle/ozan-arikan/-/1578783/,Ozan Arikan,(f 1985),,"[10.76441, 59.912058]",10.76441,59.912058
87,Gapet AS,https://proff.no/selskap/gapet-as/oslo/barer-og-puber/IF90OYT01X8/,Mer info,Org nr 922 141 541,"Bjerregaards gate 29, 0172 Oslo",,,https://proff.no/karts%C3%B8k?id=IF90OYT01X8,Vis i kart,https://proff.no/s%C3%B8k-etter-bransje/barer-og-puber/I:2492/?q=Barer%20og%20puber,Barer og puber,Sammenlign,Overvåk,Finn lignende,"
            Driftsinntekter 2021

            1 771' NOK
        ",Driftsinntekter 2021,"
            Ansatte

            11
        ",Daglig leder,https://proff.no/rolle/audun-beyer/-/571834/,Audun Beyer,(f 1974),,"[10.745739, 59.925024]",10.745739,59.925024
88,Espresso AS,https://proff.no/selskap/espresso-as/oslo/barer-og-puber/IG9JLJD01X8/,Mer info,Org nr 983 489 737,"Dalehaugen 8, 0657 Oslo",,,https://proff.no/karts%C3%B8k?id=IG9JLJD01X8,Vis i kart,https://proff.no/s%C3%B8k-etter-bransje/barer-og-puber/I:2492/?q=Barer%20og%20puber,Barer og puber,Sammenlign,Overvåk,Finn lignende,"
            Driftsinntekter 2021

            1 755' NOK
        ",Driftsinntekter 2021,"
            Ansatte

            22
        ",Daglig leder,https://proff.no/rolle/eirik-sand-johnsen/-/101691/,Eirik Sand Johnsen,(f 1982),,"[10.735045, 59.974453]",10.735045,59.974453
89,Mamounia AS,https://proff.no/selskap/mamounia-as/oslo/barer-og-puber/IG9XD2501X8/,Mer info,Org nr 984 131 933,"Vogts gate 64, 0477 Oslo",tel:22113309,22 11 33 09,https://proff.no/karts%C3%B8k?id=IG9XD2501X8,Vis i kart,https://proff.no/s%C3%B8k-etter-bransje/barer-og-puber/I:2492/?q=Barer%20og%20puber,Barer og puber,Sammenlign,Overvåk,Finn lignende,"
            Driftsinntekter 2021

            1 723' NOK
        ",Driftsinntekter 2021,"
            Ansatte

            27
        ",Kontaktperson,https://proff.no/rolle/anna-krystyna-sienkiewicz/-/17213/,Anna Krystyna Sienkiewicz,(f 1967),,"[10.765475, 59.936102]",10.765475,59.936102
90,Wing's Bar AS,https://proff.no/selskap/wings-bar-as/oslo/barer-og-puber/IF3UM8201X8/,Mer info,Org nr 913 459 970,"Olaf Schous vei 2, 0572 Oslo",,,https://proff.no/karts%C3%B8k?id=IF3UM8201X8,Vis i kart,https://proff.no/s%C3%B8k-etter-bransje/barer-og-puber/I:2492/?q=Barer%20og%20puber,Barer og puber,Sammenlign,Overvåk,Finn lignende,"
            Driftsinntekter 2021

            1 668' NOK
        ",Driftsinntekter 2021,"
            Ansatte

            0
        ",Daglig leder,https://proff.no/rolle/meiyun-liu/-/321079/,Meiyun Liu,(f 1963),,"[10.781939, 59.930441]",10.781939,59.930441
91,Wings Bar AS,https://proff.no/selskap/wings-bar-as/oslo/barer-og-puber/IF3UM8201X8-1/,Mer info,Org nr 913 459 970,"Olaf Schous vei 2, 0572 Oslo",tel:97718755,977 18 755,https://proff.no/karts%C3%B8k?id=IF3UM8201X8-1,Vis i kart,https://proff.no/s%C3%B8k-etter-bransje/barer-og-puber/I:2492/?q=Barer%20og%20puber,Barer og puber,Sammenlign,Overvåk,Finn lignende,"
            Driftsinntekter 2021

            1 668' NOK
        ",Driftsinntekter 2021,"
            Ansatte

            0
        ",Daglig leder,https://proff.no/rolle/meiyun-liu/-/321079/,Meiyun Liu,(f 1963),Wing's Bar AS,"[10.781939, 59.930441]",10.781939,59.930441
92,Yksi AS,https://proff.no/selskap/yksi-as/oslo/barer-og-puber/IF7KQYL01X8/,Mer info,Org nr 919 718 013,"Oscars gate 81, 0256 Oslo",,,https://proff.no/karts%C3%B8k?id=IF7KQYL01X8,Vis i kart,https://proff.no/s%C3%B8k-etter-bransje/barer-og-puber/I:2492/?q=Barer%20og%20puber,Barer og puber,Sammenlign,Overvåk,Finn lignende,"
            Driftsinntekter 2021

            1 621' NOK
        ",Driftsinntekter 2021,"
            Ansatte

            4
        ",Daglig leder,https://proff.no/rolle/carl-fredrik-solberg/-/1149261/,Carl Fredrik Solberg,(f 1981),,"[10.716958, 59.915918]",10.716958,59.915918
93,Bar Polar AS,https://proff.no/selskap/bar-polar-as/oslo/barer-og-puber/IDGR22M01X8/,Mer info,Org nr 814 196 542,"Sandakerveien 72 C, 0484 Oslo",,,https://proff.no/karts%C3%B8k?id=IDGR22M01X8,Vis i kart,https://proff.no/s%C3%B8k-etter-bransje/barer-og-puber/I:2492/?q=Barer%20og%20puber,Barer og puber,Sammenlign,Overvåk,Finn lignende,"
            Driftsinntekter 2021

            1 539' NOK
        ",Driftsinntekter 2021,"
            Ansatte

            2
        ",Daglig leder,https://proff.no/rolle/adam-khan/-/1699991/,Adam Khan,(f 1988),,"[10.769962, 59.94244]",10.769962,59.94244
94,Victors First AS,https://proff.no/selskap/victors-first-as/oslo/barer-og-puber/IF8OFP101X8/,Mer info,Org nr 921 569 653,"Vogts gate 58, 0477 Oslo",,,https://proff.no/karts%C3%B8k?id=IF8OFP101X8,Vis i kart,https://proff.no/s%C3%B8k-etter-bransje/barer-og-puber/I:2492/?q=Barer%20og%20puber,Barer og puber,Sammenlign,Overvåk,Finn lignende,"
            Driftsinntekter 2021

            1 487' NOK
        ",Driftsinntekter 2021,"
            Ansatte

            3
        ",Daglig leder,https://proff.no/rolle/mustafa-%C3%B8zdemir/-/332910/,Mustafa Øzdemir,(f 1971),,"[10.765266, 59.935635]",10.765266,59.935635
95,Wright Corner Pub AS,https://proff.no/selskap/wright-corner-pub-as/oslo/barer-og-puber/IF7D59K01X8/,Mer info,Org nr 919 363 304,"Sørengkaia 70, 0194 Oslo",,,https://proff.no/karts%C3%B8k?id=IF7D59K01X8,Vis i kart,https://proff.no/s%C3%B8k-etter-bransje/barer-og-puber/I:2492/?q=Barer%20og%20puber,Barer og puber,Sammenlign,Overvåk,Finn lignende,"
            Driftsinntekter 2021

            1 296' NOK
        ",Driftsinntekter 2021,"
            Ansatte

            17
        ",Daglig leder,https://proff.no/rolle/kevin-james-wright/-/254615/,Kevin James Wright,(f 1964),,"[10.755472, 59.902289]",10.755472,59.902289
96,Barotto AS,https://proff.no/selskap/barotto-as/oslo/barer-og-puber/IF3WLLM01X8/,Mer info,Org nr 913 552 474,"Parkveien 80, 0254 Oslo",tel:90937961,909 37 961,https://proff.no/karts%C3%B8k?id=IF3WLLM01X8,Vis i kart,https://proff.no/s%C3%B8k-etter-bransje/barer-og-puber/I:2492/?q=Barer%20og%20puber,Barer og puber,Sammenlign,Overvåk,Finn lignende,"
            Driftsinntekter 2021

            1 160' NOK
        ",Driftsinntekter 2021,,Daglig leder,https://proff.no/rolle/athena-barbara-sundt/-/1741710/,Athena Barbara Sundt,(f 1992),,"[10.718933, 59.912147]",10.718933,59.912147
97,Supreme Roastworks Aker Brygge AS,https://proff.no/selskap/supreme-roastworks-aker-brygge-as/oslo/barer-og-puber/IFAS24U01X8/,Mer info,Org nr 925 097 934,"Stranden 67, 0250 Oslo",tel:46858872,468 58 872,https://proff.no/karts%C3%B8k?id=IFAS24U01X8,Vis i kart,https://proff.no/s%C3%B8k-etter-bransje/barer-og-puber/I:2492/?q=Barer%20og%20puber,Barer og puber,Sammenlign,Overvåk,Finn lignende,"
            Driftsinntekter 2021

            1 088' NOK
        ",Driftsinntekter 2021,"
            Ansatte

            16
        ",Daglig leder,https://proff.no/rolle/odd-steinar-t%C3%B8llefsen/-/346181/,Odd-Steinar Tøllefsen,(f 1964),,"[10.724894, 59.908817]",10.724894,59.908817
98,Cousins Cusine AS,https://proff.no/selskap/cousins-cusine-as/oslo/barer-og-puber/IF5SOVO01X8/,Mer info,Org nr 916 729 332,"Storgata 25, 0184 Oslo",tel:90132456,901 32 456,https://proff.no/karts%C3%B8k?id=IF5SOVO01X8,Vis i kart,https://proff.no/s%C3%B8k-etter-bransje/barer-og-puber/I:2492/?q=Barer%20og%20puber,Barer og puber,Sammenlign,Overvåk,Finn lignende,"
            Driftsinntekter 2021

            1 041' NOK
        ",Driftsinntekter 2021,"
            Ansatte

            1
        ",Daglig leder,https://proff.no/rolle/linh-luu/-/1013022/,Linh Luu,(f 1983),,"[10.751188, 59.914012]",10.751188,59.914012
99,Travelt AS,https://proff.no/selskap/travelt-as/oslo/barer-og-puber/IFB35Q301X8/,Mer info,Org nr 925 615 803,"Bernt Ankers gate 39, 0183 Oslo",,,https://proff.no/karts%C3%B8k?id=IFB35Q301X8,Vis i kart,https://proff.no/s%C3%B8k-etter-bransje/barer-og-puber/I:2492/?q=Barer%20og%20puber,Barer og puber,Sammenlign,Overvåk,Finn lignende,"
            Driftsinntekter 2021

            982' NOK
        ",Driftsinntekter 2021,"
            Ansatte

            18
        ",Daglig leder,https://proff.no/rolle/oda-nadisha-sembakuttige-horgen/-/1954507/,Oda Nadisha Sembakuttige Horgen,(f 1990),,"[10.750093, 59.917126]",10.750093,59.917126
100,Gaasa AS,https://proff.no/selskap/gaasa-as/oslo/barer-og-puber/IGG9IFG01X8/,Mer info,Org nr 994 776 460,"Storgata 36, 0182 Oslo",tel:45416469,454 16 469,https://proff.no/karts%C3%B8k?id=IGG9IFG01X8,Vis i kart,https://proff.no/s%C3%B8k-etter-bransje/barer-og-puber/I:2492/?q=Barer%20og%20puber,Barer og puber,Sammenlign,Overvåk,Finn lignende,"
            Driftsinntekter 2021

            942' NOK
        ",Driftsinntekter 2021,"
            Ansatte

            31
        ",Daglig leder,https://proff.no/rolle/henrik-alexander-olsson/-/1576362/,Henrik Alexander Olsson,(f 1985),,"[10.756576, 59.914995]",10.756576,59.914995
101,Lucky Bird Vika AS,https://proff.no/selskap/lucky-bird-vika-as/oslo/barer-og-puber/IGJ5Z2401X8/,Mer info,Org nr 999 650 236,"Munkedamsveien 29, 0251 Oslo",,,https://proff.no/karts%C3%B8k?id=IGJ5Z2401X8,Vis i kart,https://proff.no/s%C3%B8k-etter-bransje/barer-og-puber/I:2492/?q=Barer%20og%20puber,Barer og puber,Sammenlign,Overvåk,Finn lignende,"
            Driftsinntekter 2021

            882' NOK
        ",Driftsinntekter 2021,"
            Ansatte

            6
        ",Daglig leder,https://proff.no/rolle/bo-vivike/-/74687/,Bo Vivike,(f 1972),,Error,E,r
102,Frokostkjelleren AS,https://proff.no/selskap/frokostkjelleren-as/oslo/barer-og-puber/IGCY0HY01X8/,Mer info,Org nr 989 201 158,"Karl Johans gate 47, 0162 Oslo",tel:22859585,22 85 95 85,https://proff.no/karts%C3%B8k?id=IGCY0HY01X8,Vis i kart,https://proff.no/s%C3%B8k-etter-bransje/barer-og-puber/I:2492/?q=Barer%20og%20puber,Barer og puber,Sammenlign,Overvåk,Finn lignende,"
            Driftsinntekter 2021

            802' NOK
        ",Driftsinntekter 2021,"
            Ansatte

            24
        ",Daglig leder,https://proff.no/rolle/vera-haaversen-westhassel-skj%C3%B8lberg/-/2283234/,Vera Haaversen-Westhassel Skjølberg,(f 2001),,"[10.735179, 59.915356]",10.735179,59.915356
103,The Smoothie Factory Røa AS,https://proff.no/selskap/the-smoothie-factory-r%C3%B8a-as/oslo/barer-og-puber/IFAIEX901X8/,Mer info,Org nr 924 647 949,"Tore Hals Mejdells vei 5, 0751 Oslo",,,,,https://proff.no/s%C3%B8k-etter-bransje/barer-og-puber/I:2492/?q=Barer%20og%20puber,Barer og puber,Sammenlign,Overvåk,Finn lignende,"
            Driftsinntekter 2020

            781' NOK
        ",Driftsinntekter 2020,,Daglig leder,https://proff.no/rolle/william-vardund/-/1673836/,William Vardund,(f 1990),,"[10.643123, 59.946188]",10.643123,59.946188
104,Svineriet AS,https://proff.no/selskap/svineriet-as/oslo/barer-og-puber/IF5BHVM01X8/,Mer info,Org nr 915 927 106,"Bernt Ankers gate 37, 0183 Oslo",,,https://proff.no/karts%C3%B8k?id=IF5BHVM01X8,Vis i kart,https://proff.no/s%C3%B8k-etter-bransje/barer-og-puber/I:2492/?q=Barer%20og%20puber,Barer og puber,Sammenlign,Overvåk,Finn lignende,"
            Driftsinntekter 2021

            765' NOK
        ",Driftsinntekter 2021,"
            Ansatte

            12
        ",Daglig leder,https://proff.no/rolle/eugenia-bucciol/-/2263213/,Eugenia Bucciol,(f 1989),,"[10.75027, 59.917023]",10.75027,59.917023
105,Ille AS,https://proff.no/selskap/ille-as/oslo/barer-og-puber/IF3DMNR01X8/,Mer info,Org nr 912 667 383,"Møllergata 32, 0179 Oslo",,,https://proff.no/karts%C3%B8k?id=IF3DMNR01X8,Vis i kart,https://proff.no/s%C3%B8k-etter-bransje/barer-og-puber/I:2492/?q=Barer%20og%20puber,Barer og puber,Sammenlign,Overvåk,Finn lignende,"
            Driftsinntekter 2021

            728' NOK
        ",Driftsinntekter 2021,,Styrets leder,https://proff.no/rolle/dan-marius-buflod-nordhagen/-/978795/,Dan Marius Buflod Nordhagen,(f 1981),,"[10.749743, 59.917]",10.749743,59.917
106,Madisons AS,https://proff.no/selskap/madisons-as/oslo/barer-og-puber/IF5T88I01X8/,Mer info,Org nr 916 754 418,"Wergelandsveien 27, 0167 Oslo",,,https://proff.no/karts%C3%B8k?id=IF5T88I01X8,Vis i kart,https://proff.no/s%C3%B8k-etter-bransje/barer-og-puber/I:2492/?q=Barer%20og%20puber,Barer og puber,Sammenlign,Overvåk,Finn lignende,"
            Driftsinntekter 2021

            620' NOK
        ",Driftsinntekter 2021,"
            Ansatte

            5
        ",Daglig leder,https://proff.no/rolle/madeleine-solheim-johnsen/-/1667418/,Madeleine Solheim Johnsen,(f 1988),,"[10.728883, 59.920172]",10.728883,59.920172
107,Hammerhai i Oslobukta AS,https://proff.no/selskap/hammerhai-i-oslobukta-as/oslo/barer-og-puber/IFBW07V01X8/,Mer info,Org nr 926 961 691,"Operagata 77, 0194 Oslo",,,https://proff.no/karts%C3%B8k?id=IFBW07V01X8,Vis i kart,https://proff.no/s%C3%B8k-etter-bransje/barer-og-puber/I:2492/?q=Barer%20og%20puber,Barer og puber,Sammenlign,Overvåk,Finn lignende,"
            Driftsinntekter 2021

            499' NOK
        ",Driftsinntekter 2021,"
            Ansatte

            19
        ",Daglig leder,https://proff.no/rolle/misgina-gherense-ghebremeskel/-/1373257/,Misgina Gherense Ghebremeskel,(f 1985),,"[10.759225, 59.906446]",10.759225,59.906446
108,Klorofyll AS,https://proff.no/selskap/klorofyll-as/oslo/barer-og-puber/IF7VM6N01X8/,Mer info,Org nr 920 225 039,"Økernveien 182, 0580 Oslo",,,https://proff.no/karts%C3%B8k?id=IF7VM6N01X8,Vis i kart,https://proff.no/s%C3%B8k-etter-bransje/barer-og-puber/I:2492/?q=Barer%20og%20puber,Barer og puber,Sammenlign,Overvåk,Finn lignende,"
            Driftsinntekter 2021

            375' NOK
        ",Driftsinntekter 2021,,Daglig leder,https://proff.no/rolle/stian-vaagland/-/433415/,Stian Vaagland,(f 1977),,"[10.808573, 59.935915]",10.808573,59.935915
109,Mersmak Bryn Kaffe & Isbar AS,https://proff.no/selskap/mersmak-bryn-kaffe-isbar-as/oslo/barer-og-puber/IF40ZN801X8/,Mer info,Org nr 913 757 300,"Østensjøveien 79, 0667 Oslo",,,,,https://proff.no/s%C3%B8k-etter-bransje/barer-og-puber/I:2492/?q=Barer%20og%20puber,Barer og puber,Sammenlign,Overvåk,Finn lignende,"
            Driftsinntekter 2021

            289' NOK
        ",Driftsinntekter 2021,,Styrets leder,https://proff.no/rolle/hafsa-ahmad-alsaeed/-/2062034/,Hafsa Ahmad Alsaeed,(f 1996),,Error,E,r
110,Strav Holding AS,https://proff.no/selskap/strav-holding-as/oslo/barer-og-puber/IGCCKT501X8/,Mer info,Org nr 988 201 049,"Munthes gate 29, 0260 Oslo",,,https://proff.no/karts%C3%B8k?id=IGCCKT501X8,Vis i kart,https://proff.no/s%C3%B8k-etter-bransje/serveringssteder/I:17842/?q=Serveringssteder,Serveringssteder,Sammenlign,Overvåk,Finn lignende,"
            Driftsinntekter 2021

            265' NOK
        ",Driftsinntekter 2021,,Daglig leder,https://proff.no/rolle/bo-vivike/-/74687/,Bo Vivike,(f 1972),,Error,E,r
111,Hol & Andestad Holding AS,https://proff.no/selskap/hol-andestad-holding-as/oslo/barer-og-puber/IFB4IKV01X8/,Mer info,Org nr 925 679 119,"Belgerudveien 6D, 0957 Oslo",,,,,https://proff.no/s%C3%B8k-etter-bransje/barer-og-puber/I:2492/?q=Barer%20og%20puber,Barer og puber,Sammenlign,Overvåk,Finn lignende,"
            Driftsinntekter 2021

            264' NOK
        ",Driftsinntekter 2021,"
            Ansatte

            0
        ",Styrets leder,https://proff.no/rolle/urd-andestad/-/1398529/,Urd Andestad,(f 1979),,"[10.867043, 59.962495]",10.867043,59.962495
112,Misfornøyelsesbar AS,https://proff.no/selskap/misforn%C3%B8yelsesbar-as/oslo/barer-og-puber/IF51BVC01X8/,Mer info,Org nr 915 452 760,"Storgata 36J, 0182 Oslo",,,,,https://proff.no/s%C3%B8k-etter-bransje/barer-og-puber/I:2492/?q=Barer%20og%20puber,Barer og puber,Sammenlign,Overvåk,Finn lignende,"
            Driftsinntekter 2021

            257' NOK
        ",Driftsinntekter 2021,"
            Ansatte

            12
        ",Daglig leder,https://proff.no/rolle/david-gurrik/-/92883/,David Gurrik,(f 1969),,"[10.756576, 59.914995]",10.756576,59.914995
113,Bernies Drift AS,https://proff.no/selskap/bernies-drift-as/oslo/barer-og-puber/IFBL9Z101X8/,Mer info,Org nr 926 461 117,"Schweigaards gate 50 B, 0191 Oslo",,,https://proff.no/karts%C3%B8k?id=IFBL9Z101X8,Vis i kart,https://proff.no/s%C3%B8k-etter-bransje/barer-og-puber/I:2492/?q=Barer%20og%20puber,Barer og puber,Sammenlign,Overvåk,Finn lignende,"
            Driftsinntekter 2021

            248' NOK
        ",Driftsinntekter 2021,,Kontaktperson,https://proff.no/rolle/raymond-wiig/-/388008/,Raymond Wiig,(f 1966),,"[10.76787, 59.90885]",10.76787,59.90885
114,Gunnar & Fridtjof AS,https://proff.no/selskap/gunnar-fridtjof-as/oslo/barer-og-puber/IFC5F9K01X8/,Mer info,Org nr 927 401 096,"Mariboes gate 4, 0183 Oslo",,,https://proff.no/karts%C3%B8k?id=IFC5F9K01X8,Vis i kart,https://proff.no/s%C3%B8k-etter-bransje/barer-og-puber/I:2492/?q=Barer%20og%20puber,Barer og puber,Sammenlign,Overvåk,Finn lignende,"
            Driftsinntekter 2021

            200' NOK
        ",Driftsinntekter 2021,,Daglig leder,https://proff.no/rolle/gunnar-forsgren/-/1966439/,Gunnar Forsgren,(f 1986),,"[10.750225, 59.916447]",10.750225,59.916447
115,Ska Restaurantdrift AS,https://proff.no/selskap/ska-restaurantdrift-as/oslo/barer-og-puber/IF9IR3F01X8/,Mer info,Org nr 922 984 107,"Osterhaus' gate 11 A, 0183 Oslo",tel:93886483,938 86 483,https://proff.no/karts%C3%B8k?id=IF9IR3F01X8,Vis i kart,https://proff.no/s%C3%B8k-etter-bransje/serveringssteder/I:17842/?q=Serveringssteder,Serveringssteder,Sammenlign,Overvåk,Finn lignende,"
            Driftsinntekter 2021

            165' NOK
        ",Driftsinntekter 2021,"
            Ansatte

            1
        ",Daglig leder,https://proff.no/rolle/erik-eugen-bruun/-/113776/,Erik Eugen Bruun,(f 1972),,"[10.753301, 59.916563]",10.753301,59.916563
116,Else Haugen AS,https://proff.no/selskap/else-haugen-as/oslo/barer-og-puber/IGCYTFR01X8/,Mer info,Org nr 989 238 663,"Østensjøveien 79, 0667 Oslo",tel:92049994,920 49 994,https://proff.no/karts%C3%B8k?id=IGCYTFR01X8,Vis i kart,https://proff.no/s%C3%B8k-etter-bransje/barer-og-puber/I:2492/?q=Barer%20og%20puber,Barer og puber,Sammenlign,Overvåk,Finn lignende,"
            Driftsinntekter 2021

            151' NOK
        ",Driftsinntekter 2021,"
            Ansatte

            5
        ",Daglig leder,https://proff.no/rolle/else-marit-haugen/-/111434/,Else Marit Haugen,(f 1965),,"[10.822458, 59.903192]",10.822458,59.903192
117,Gemene Hop AS,https://proff.no/selskap/gemene-hop-as/oslo/barer-og-puber/IFCG8R001X8/,Mer info,Org nr 927 905 868,"Schweigaards gate 34 C, 0191 Oslo",,,https://proff.no/karts%C3%B8k?id=IFCG8R001X8,Vis i kart,https://proff.no/s%C3%B8k-etter-bransje/barer-og-puber/I:2492/?q=Barer%20og%20puber,Barer og puber,Sammenlign,Overvåk,Finn lignende,"
            Driftsinntekter 2021

            126' NOK
        ",Driftsinntekter 2021,"
            Ansatte

            8
        ",Daglig leder,https://proff.no/rolle/magne-hoslemo/-/2308101/,Magne Hoslemo,(f 1993),,"[10.764584, 59.909954]",10.764584,59.909954
118,Barcode Street Food AS,https://proff.no/selskap/barcode-street-food-as/oslo/barer-og-puber/IFC9OWQ01X8/,Mer info,Org nr 927 600 218,"Dronning Eufemias gate 14, 0191 Oslo",tel:47500041,475 00 041,https://proff.no/karts%C3%B8k?id=IFC9OWQ01X8,Vis i kart,https://proff.no/s%C3%B8k-etter-bransje/barer-og-puber/I:2492/?q=Barer%20og%20puber,Barer og puber,Sammenlign,Overvåk,Finn lignende,"
            Driftsinntekter 2021

            10' NOK
        ",Driftsinntekter 2021,"
            Ansatte

            29
        ",Daglig leder,https://proff.no/rolle/haakon-geirbo-sand/-/1727890/,Haakon Geirbo Sand,(f 1981),,"[10.758252, 59.908438]",10.758252,59.908438
119,The Corner Tea and Coffee House AS,https://proff.no/selskap/the-corner-tea-and-coffee-house-as/oslo/barer-og-puber/IFAI5RW01X8/,Mer info,Org nr 924 636 092,"Skullerudbakken 128, 1188 Oslo",,,https://proff.no/karts%C3%B8k?id=IFAI5RW01X8,Vis i kart,https://proff.no/s%C3%B8k-etter-bransje/barer-og-puber/I:2492/?q=Barer%20og%20puber,Barer og puber,Sammenlign,Overvåk,Finn lignende,"
            Driftsinntekter 2021

            4' NOK
        ",Driftsinntekter 2021,,Daglig leder,https://proff.no/rolle/jui-chu-hsu-allott/-/2166470/,Jui Chu Hsu Allott,(f 1968),,"[10.836523, 59.864251]",10.836523,59.864251
120,Boris Pubs AS,https://proff.no/selskap/boris-pubs-as/oslo/barer-og-puber/IFBZ1K801X8/,Mer info,Org nr 927 103 400,"Wessels gate 1 B, 0165 Oslo",,,https://proff.no/karts%C3%B8k?id=IFBZ1K801X8,Vis i kart,https://proff.no/s%C3%B8k-etter-bransje/barer-og-puber/I:2492/?q=Barer%20og%20puber,Barer og puber,Sammenlign,Overvåk,Finn lignende,"
            Driftsinntekter 2021

            1' NOK
        ",Driftsinntekter 2021,,Daglig leder,https://proff.no/rolle/borislav-ivelinov-iliev/-/2167713/,Borislav Ivelinov Iliev,(f 1963),,"[10.742838, 59.919969]",10.742838,59.919969
121,Paradise Bar AS,https://proff.no/selskap/paradise-bar-as/oslo/barer-og-puber/IF68C3E01X8/,Mer info,Org nr 917 459 258,"Hesselbergs gate 1 A, 0555 Oslo",tel:90035494,900 35 494,https://proff.no/karts%C3%B8k?id=IF68C3E01X8,Vis i kart,https://proff.no/s%C3%B8k-etter-bransje/barer-og-puber/I:2492/?q=Barer%20og%20puber,Barer og puber,Sammenlign,Overvåk,Finn lignende,"
            Driftsinntekter 2021

            -3' NOK
        ",Driftsinntekter 2021,,Daglig leder,https://proff.no/rolle/colin-patrick-duignan/-/1862527/,Colin Patrick Duignan,(f 1983),,"[10.759292, 59.927685]",10.759292,59.927685
122,Old Irish Pub Norway AS Avd Rosenkrantzgata,https://proff.no/selskap/old-irish-pub-norway-as-avd-rosenkrantzgata/oslo/barer-og-puber/IF74GQI01X8/,Mer info,Org nr 918 864 776,"Rosenkrantz' gate 7, 0159 Oslo",,,,,https://proff.no/s%C3%B8k-etter-bransje/barer-og-puber/I:2492/?q=Barer%20og%20puber,Barer og puber,Sammenlign,Overvåk,Finn lignende,"
            Ansatte

            40
        ",Ansatte,,,,,,,"[10.73951, 59.914691]",10.73951,59.914691
123,Is Companiet AS Avd Stranden,https://proff.no/selskap/is-companiet-as-avd-stranden/oslo/barer-og-puber/IFB2VEY01X8/,Mer info,Org nr 825 573 062,"Stranden 33A, 0250 Oslo",,,,,https://proff.no/s%C3%B8k-etter-bransje/barer-og-puber/I:2492/?q=Barer%20og%20puber,Barer og puber,Sammenlign,Overvåk,Finn lignende,"
            Ansatte

            10
        ",Ansatte,,,,,,,"[10.735045, 59.974453]",10.735045,59.974453
124,Steam kaffebar Østbanehallen,https://proff.no/selskap/steam-kaffebar-%C3%B8stbanehallen/oslo/barer-og-puber/IF5PKD801X8/,Mer info,Org nr 986 859 586,"Jernbanetorget 1, 0154 Oslo",tel:47908266,479 08 266,https://proff.no/karts%C3%B8k?id=IF5PKD801X8,Vis i kart,https://proff.no/s%C3%B8k-etter-bransje/barer-og-puber/I:2492/?q=Barer%20og%20puber,Barer og puber,Sammenlign,Overvåk,Finn lignende,"
            Ansatte

            25
        ",Ansatte,,,,,,Kaffehuset Steam AS avd Østbanehallen,"[10.750737, 59.910875]",10.750737,59.910875
125,Stockfleth AS avd Prinsens Gate,https://proff.no/selskap/stockfleth-as-avd-prinsens-gate/oslo/barer-og-puber/IF7NZ9801X8/,Mer info,Org nr 916 280 572,"Prinsens gate 6, 0152 Oslo",tel:40092364,400 92 364,https://proff.no/karts%C3%B8k?id=IF7NZ9801X8,Vis i kart,https://proff.no/s%C3%B8k-etter-bransje/barer-og-puber/I:2492/?q=Barer%20og%20puber,Barer og puber,Sammenlign,Overvåk,Finn lignende,"
            Ansatte

            11
        ",Ansatte,,,,,,,"[10.747124, 59.910397]",10.747124,59.910397
126,Stockfleth AS avd Schous Plass,https://proff.no/selskap/stockfleth-as-avd-schous-plass/oslo/barer-og-puber/IF7NZAF01X8/,Mer info,Org nr 916 280 572,"Schous plass 1, 0552 Oslo",,,https://proff.no/karts%C3%B8k?id=IF7NZAF01X8,Vis i kart,https://proff.no/s%C3%B8k-etter-bransje/barer-og-puber/I:2492/?q=Barer%20og%20puber,Barer og puber,Sammenlign,Overvåk,Finn lignende,"
            Ansatte

            16
        ",Ansatte,,,,,,,"[10.759596, 59.921139]",10.759596,59.921139
127,Stockfleth AS avd Arkaden,https://proff.no/selskap/stockfleth-as-avd-arkaden/oslo/barer-og-puber/IF84OTF01X8/,Mer info,Org nr 916 280 572,"Skippergata 29, 0154 Oslo",,,https://proff.no/karts%C3%B8k?id=IF84OTF01X8,Vis i kart,https://proff.no/s%C3%B8k-etter-bransje/barer-og-puber/I:2492/?q=Barer%20og%20puber,Barer og puber,Sammenlign,Overvåk,Finn lignende,"
            Ansatte

            11
        ",Ansatte,,,,,,,"[10.748603, 59.911792]",10.748603,59.911792
128,Stockfleth AS avd Homansbyen,https://proff.no/selskap/stockfleth-as-avd-homansbyen/oslo/barer-og-puber/IF92A8U01X8/,Mer info,Org nr 916 280 572,"Josefines gate 23, 0351 Oslo",,,https://proff.no/karts%C3%B8k?id=IF92A8U01X8,Vis i kart,https://proff.no/s%C3%B8k-etter-bransje/barer-og-puber/I:2492/?q=Barer%20og%20puber,Barer og puber,Sammenlign,Overvåk,Finn lignende,"
            Ansatte

            9
        ",Ansatte,,,,,,,"[10.725904, 59.923094]",10.725904,59.923094
129,Old Irish Pub Norway AS avd Klingenberggata,https://proff.no/selskap/old-irish-pub-norway-as-avd-klingenberggata/oslo/barer-og-puber/IF9T62L01X8/,Mer info,Org nr 918 864 776,"Klingenberggata 5, 0161 Oslo",,,https://proff.no/karts%C3%B8k?id=IF9T62L01X8,Vis i kart,https://proff.no/s%C3%B8k-etter-bransje/barer-og-puber/I:2492/?q=Barer%20og%20puber,Barer og puber,Sammenlign,Overvåk,Finn lignende,"
            Ansatte

            14
        ",Ansatte,,,,,,,"[10.732172, 59.913608]",10.732172,59.913608
130,Old Irish Pub Norway AS avd Majorstua,https://proff.no/selskap/old-irish-pub-norway-as-avd-majorstua/oslo/barer-og-puber/IF9T5TT01X8/,Mer info,Org nr 918 864 776,"Kirkeveien 64, 0364 Oslo",,,https://proff.no/karts%C3%B8k?id=IF9T5TT01X8,Vis i kart,https://proff.no/s%C3%B8k-etter-bransje/barer-og-puber/I:2492/?q=Barer%20og%20puber,Barer og puber,Sammenlign,Overvåk,Finn lignende,"
            Ansatte

            56
        ",Ansatte,,,,,,,"[10.71547, 59.929256]",10.71547,59.929256
131,Arkitekturmuseet,https://proff.no/selskap/arkitekturmuseet/oslo/barer-og-puber/IFD5SXZ01X8/,Mer info,Org nr 927 233 533,"Bankplassen 3, 0151 Oslo",,,https://proff.no/karts%C3%B8k?id=IFD5SXZ01X8,Vis i kart,https://proff.no/s%C3%B8k-etter-bransje/barer-og-puber/I:2492/?q=Barer%20og%20puber,Barer og puber,Sammenlign,Overvåk,Finn lignende,"
            Ansatte

            1
        ",Ansatte,,,,,,,"[10.740227, 59.908759]",10.740227,59.908759
132,The Times Bar,https://proff.no/selskap/the-times-bar/oslo/barer-og-puber/IGB74D001X8/,Mer info,Org nr 985 429 847,"Galgeberg 3 A, 0657 Oslo",tel:22677715,22 67 77 15,https://proff.no/karts%C3%B8k?id=IGB74D001X8,Vis i kart,https://proff.no/s%C3%B8k-etter-bransje/barer-og-puber/I:2492/?q=Barer%20og%20puber,Barer og puber,Sammenlign,Overvåk,Finn lignende,"
            Ansatte

            7
        ",Ansatte,,,,,,,"[10.780588, 59.907574]",10.780588,59.907574
133,UnderBar,https://proff.no/selskap/underbar/oslo/barer-og-puber/IGDG1ZC01X8/,Mer info,Org nr 965 497 633,"Holmens gate 3, 0250 Oslo",tel:22877700,22 87 77 00,https://proff.no/karts%C3%B8k?id=IGDG1ZC01X8,Vis i kart,https://proff.no/s%C3%B8k-etter-bransje/barer-og-puber/I:2492/?q=Barer%20og%20puber,Barer og puber,Sammenlign,Overvåk,Finn lignende,"
            Ansatte

            11
        ",Ansatte,,,,,,,"[10.726566, 59.910709]",10.726566,59.910709
134,Beer Palace,https://proff.no/selskap/beer-palace/oslo/barer-og-puber/IG2WU6501X8/,Mer info,Org nr 965 497 633,"Holmens gate 3, 0250 Oslo",tel:22837155,22 83 71 55,https://proff.no/karts%C3%B8k?id=IG2WU6501X8,Vis i kart,https://proff.no/s%C3%B8k-etter-bransje/barer-og-puber/I:2492/?q=Barer%20og%20puber,Barer og puber,Sammenlign,Overvåk,Finn lignende,"
            Ansatte

            8
        ",Ansatte,,,,,,,"[10.726566, 59.910709]",10.726566,59.910709
135,Steam Kaffebar Eger,https://proff.no/selskap/steam-kaffebar-eger/oslo/barer-og-puber/IGGZY6801X8/,Mer info,Org nr 986 859 586,"Øvre Slottsgate 25, 0157 Oslo",tel:47937474,479 37 474,https://proff.no/karts%C3%B8k?id=IGGZY6801X8,Vis i kart,https://proff.no/s%C3%B8k-etter-bransje/barer-og-puber/I:2492/?q=Barer%20og%20puber,Barer og puber,Sammenlign,Overvåk,Finn lignende,,,,,,,,Kaffehuset Steam AS avd Eger Oslo,"[10.742296, 59.913136]",10.742296,59.913136
136,Steam Kaffebar CC Vest,https://proff.no/selskap/steam-kaffebar-cc-vest/oslo/barer-og-puber/IGF93YL01X8/,Mer info,Org nr 986 859 586,"Lilleakerveien 16, 0283 Oslo",tel:92654017,926 54 017,https://proff.no/karts%C3%B8k?id=IGF93YL01X8,Vis i kart,https://proff.no/s%C3%B8k-etter-bransje/barer-og-puber/I:2492/?q=Barer%20og%20puber,Barer og puber,Sammenlign,Overvåk,Finn lignende,"
            Ansatte

            14
        ",Ansatte,,,,,,Kaffehuset Steam AS avd Oslo,"[10.636047, 59.917405]",10.636047,59.917405
137,Stockfleth Tinghuset,https://proff.no/selskap/stockfleth-tinghuset/oslo/barer-og-puber/IGAIHXF01X8/,Mer info,Org nr 916 280 572,"C. J. Hambros plass 4, 0164 Oslo",tel:40092366,400 92 366,https://proff.no/karts%C3%B8k?id=IGAIHXF01X8,Vis i kart,https://proff.no/s%C3%B8k-etter-bransje/barer-og-puber/I:2492/?q=Barer%20og%20puber,Barer og puber,Sammenlign,Overvåk,Finn lignende,"
            Ansatte

            9
        ",Ansatte,,,,,,Stockfleth AS avd Tinghuset,"[10.741406, 59.915623]",10.741406,59.915623
138,Stockfleth Skippergata,https://proff.no/selskap/stockfleth-skippergata/oslo/barer-og-puber/IGDF52V01X8/,Mer info,Org nr 916 280 572,"Skippergata 9, 0152 Oslo",tel:40092361,400 92 361,https://proff.no/karts%C3%B8k?id=IGDF52V01X8,Vis i kart,https://proff.no/s%C3%B8k-etter-bransje/barer-og-puber/I:2492/?q=Barer%20og%20puber,Barer og puber,Sammenlign,Overvåk,Finn lignende,"
            Ansatte

            2
        ",Ansatte,,,,,,Stockfleth AS avd Skippergata,"[10.745289, 59.908289]",10.745289,59.908289
139,Stockfleth Gamlebyen,https://proff.no/selskap/stockfleth-gamlebyen/oslo/barer-og-puber/IF2QRW701X8/,Mer info,Org nr 916 280 572,"Munkegata 2, 0656 Oslo",tel:40092367,400 92 367,https://proff.no/karts%C3%B8k?id=IF2QRW701X8,Vis i kart,https://proff.no/s%C3%B8k-etter-bransje/barer-og-puber/I:2492/?q=Barer%20og%20puber,Barer og puber,Sammenlign,Overvåk,Finn lignende,"
            Ansatte

            5
        ",Ansatte,,,,,,Stockfleth AS avd Gamlebyen,"[10.768387, 59.908359]",10.768387,59.908359
140,Sio Mat og Drikke AS avd 70 Erik,https://proff.no/selskap/sio-mat-og-drikke-as-avd-70-erik/oslo/barer-og-puber/IGIJBOY01X8/,Mer info,Org nr 960 658 493,"Sognsvannsveien 9, 0372 Oslo",,,https://proff.no/karts%C3%B8k?id=IGIJBOY01X8,Vis i kart,https://proff.no/s%C3%B8k-etter-bransje/barer-og-puber/I:2492/?q=Barer%20og%20puber,Barer og puber,Sammenlign,Overvåk,Finn lignende,"
            Ansatte

            1
        ",Ansatte,,,,,,,"[10.71496, 59.946859]",10.71496,59.946859
141,Sio Mat og Drikke AS avd 93 Kaffelars,https://proff.no/selskap/sio-mat-og-drikke-as-avd-93-kaffelars/oslo/barer-og-puber/IGH9CUB01X8/,Mer info,Org nr 960 658 493,"Pilestredet 46, 0167 Oslo",,,https://proff.no/karts%C3%B8k?id=IGH9CUB01X8,Vis i kart,https://proff.no/s%C3%B8k-etter-bransje/barer-og-puber/I:2492/?q=Barer%20og%20puber,Barer og puber,Sammenlign,Overvåk,Finn lignende,"
            Ansatte

            2
        ",Ansatte,,,,,,,Error,E,r
142,Stockfleth Lille Grensen,https://proff.no/selskap/stockfleth-lille-grensen/oslo/barer-og-puber/IGEJXLH01X8/,Mer info,Org nr 916 280 572,"Karl Johans gate 25, 0159 Oslo",,,https://proff.no/karts%C3%B8k?id=IGEJXLH01X8,Vis i kart,https://proff.no/s%C3%B8k-etter-bransje/barer-og-puber/I:2492/?q=Barer%20og%20puber,Barer og puber,Sammenlign,Overvåk,Finn lignende,"
            Ansatte

            8
        ",Ansatte,,,,,,Stockfleth AS avd Lille Grensen,"[10.74101, 59.913312]",10.74101,59.913312
143,4 Kopper Nydalen,https://proff.no/selskap/4-kopper-nydalen/oslo/barer-og-puber/IGAQNQ001X8/,Mer info,Org nr 996 697 916,"Nydalsveien 33, 0484 Oslo",,,https://proff.no/karts%C3%B8k?id=IGAQNQ001X8,Vis i kart,https://proff.no/s%C3%B8k-etter-bransje/barer-og-puber/I:2492/?q=Barer%20og%20puber,Barer og puber,Sammenlign,Overvåk,Finn lignende,,,,,,,,,"[10.765903, 59.949394]",10.765903,59.949394
144,Sio Mat og Drikke AS avd 96 Andrea Spiseri,https://proff.no/selskap/sio-mat-og-drikke-as-avd-96-andrea-spiseri/oslo/barer-og-puber/IGITBF001X8/,Mer info,Org nr 960 658 493,"Pilestredet 32, 0166 Oslo",,,https://proff.no/karts%C3%B8k?id=IGITBF001X8,Vis i kart,https://proff.no/s%C3%B8k-etter-bransje/barer-og-puber/I:2492/?q=Barer%20og%20puber,Barer og puber,Sammenlign,Overvåk,Finn lignende,"
            Ansatte

            5
        ",Ansatte,,,,,,,"[10.735783, 59.920072]",10.735783,59.920072
145,Sun Off's Bar ANS,https://proff.no/selskap/sun-offs-bar-ans/oslo/barer-og-puber/IEI676Q01X8/,Mer info,Org nr 877 048 802,"Observatoriegata 2B, 0254 Oslo",,,,,https://proff.no/s%C3%B8k-etter-bransje/barer-og-puber/I:2492/?q=Barer%20og%20puber,Barer og puber,Sammenlign,Overvåk,Finn lignende,"
            Ansatte

            0
        ",Ansatte,,Daglig leder,https://proff.no/rolle/jo-kvalstad-eckhoff/-/222342/,Jo Kvalstad Eckhoff,(f 1969),,"[10.718577, 59.914253]",10.718577,59.914253
146,Cafe Yamit AS,https://proff.no/selskap/cafe-yamit-as/oslo/barer-og-puber/IF32WG801X8/,Mer info,Org nr 912 166 856,"Dælenenggata 16, 0567 Oslo",,,,,https://proff.no/s%C3%B8k-etter-bransje/barer-og-puber/I:2492/?q=Barer%20og%20puber,Barer og puber,Sammenlign,Overvåk,Finn lignende,"
            Driftsinntekter 2021

            0' NOK
        ",Driftsinntekter 2021,,Styrets leder,https://proff.no/rolle/mostafa-lyamouri/-/332548/,Mostafa Lyamouri,(f 1965),,"[10.77242, 59.926105]",10.77242,59.926105
147,The Juicery Grunerløkka AS,https://proff.no/selskap/the-juicery-grunerl%C3%B8kka-as/oslo/barer-og-puber/IFBLKJ801X8/,Mer info,Org nr 926 474 804,"Markveien 46A, 0554 Oslo",,,,,https://proff.no/s%C3%B8k-etter-bransje/barer-og-puber/I:2492/?q=Barer%20og%20puber,Barer og puber,Sammenlign,Overvåk,Finn lignende,"
            Ansatte

            0
        ",Ansatte,,,,,,,"[10.75793, 59.921431]",10.75793,59.921431
148,Quality Service Souleymane,https://proff.no/selskap/quality-service-souleymane/oslo/barer-og-puber/IFZEEZ501X8/,Mer info,Org nr 966 451 793,"Trondheimsveien 26B, 0560 Oslo",,,,,https://proff.no/s%C3%B8k-etter-bransje/barer-og-puber/I:2492/?q=Barer%20og%20puber,Barer og puber,Sammenlign,Overvåk,Finn lignende,"
            Ansatte

            0
        ",Ansatte,,Daglig leder,https://proff.no/rolle/hamadjoulde-souleymane/-/159491/,Hamadjoulde Souleymane,(f 1962),,"[10.767068, 59.920339]",10.767068,59.920339
149,Texas Brødre DA,https://proff.no/selskap/texas-br%C3%B8dre-da/oslo/barer-og-puber/IG5MP7C01X8/,Mer info,Org nr 976 915 992,"Tøyengata 12, 0190 Oslo",,,,,https://proff.no/s%C3%B8k-etter-bransje/barer-og-puber/I:2492/?q=Barer%20og%20puber,Barer og puber,Sammenlign,Overvåk,Finn lignende,"
            Ansatte

            0
        ",Ansatte,,Daglig leder,https://proff.no/rolle/kadasamy-naranderan/-/241498/,Kadasamy Naranderan,(f 1964),,"[10.76453, 59.912981]",10.76453,59.912981
150,Kaffebar Aqsa Butt,https://proff.no/selskap/kaffebar-aqsa-butt/oslo/barer-og-puber/IG9ELNC01X8/,Mer info,Org nr 983 256 600,"Stockflethsgata 51, 0461 Oslo",,,,,https://proff.no/s%C3%B8k-etter-bransje/barer-og-puber/I:2492/?q=Barer%20og%20puber,Barer og puber,Sammenlign,Overvåk,Finn lignende,,,,Innehaver,https://proff.no/rolle/aqsa-noreen-butt/-/28211/,Aqsa Noreen Butt,(f 1977),,"[10.735045, 59.974453]",10.735045,59.974453
151,Bitch DA,https://proff.no/selskap/bitch-da/oslo/barer-og-puber/IGBJY6T01X8/,Mer info,Org nr 986 865 365,"Kirkegata 34, 0153 Oslo",,,,,https://proff.no/s%C3%B8k-etter-bransje/barer-og-puber/I:2492/?q=Barer%20og%20puber,Barer og puber,Sammenlign,Overvåk,Finn lignende,,,,Daglig leder,https://proff.no/rolle/andreas-foss-folles%C3%B8/-/11187/,Andreas Foss Follesø,(f 1978),,"[10.745347, 59.911764]",10.745347,59.911764
152,Prima Fila AS,https://proff.no/selskap/prima-fila-as/oslo/barer-og-puber/IGBP8TD01X8/,Mer info,Org nr 987 112 417,"Fridtjof Nansens plass 5, 0160 Oslo",,,,,https://proff.no/s%C3%B8k-etter-bransje/barer-og-puber/I:2492/?q=Barer%20og%20puber,Barer og puber,Sammenlign,Overvåk,Finn lignende,"
            Driftsinntekter 2021

            0' NOK
        ",Driftsinntekter 2021,,Kontaktperson,https://proff.no/rolle/mumtaz-payasli/-/332772/,Mumtaz Payasli,(f 1957),,"[10.734441, 59.913219]",10.734441,59.913219
153,Smultron Hørnan Fazli Fazliji,https://proff.no/selskap/smultron-h%C3%B8rnan-fazli-fazliji/oslo/barer-og-puber/IDGC6XC01X8/,Mer info,Org nr 813 502 992,"Søndre gate 2, 0550 Oslo",tel:41335495,413 35 495,https://proff.no/karts%C3%B8k?id=IDGC6XC01X8,Vis i kart,https://proff.no/s%C3%B8k-etter-bransje/barer-og-puber/I:2492/?q=Barer%20og%20puber,Barer og puber,Sammenlign,Overvåk,Finn lignende,,,,Innehaver,https://proff.no/rolle/fazli-fazliji/-/1662850/,Fazli Fazliji,(f 1989),,"[10.756589, 59.918746]",10.756589,59.918746
154,Baroque,https://proff.no/selskap/baroque/oslo/barer-og-puber/IF2SDQC01X8/,Mer info,Org nr 911 676 036,"Bygdøy allé 5, 0257 Oslo",tel:22448044,22 44 80 44,https://proff.no/karts%C3%B8k?id=IF2SDQC01X8,Vis i kart,https://proff.no/s%C3%B8k-etter-bransje/barer-og-puber/I:2492/?q=Barer%20og%20puber,Barer og puber,Sammenlign,Overvåk,Finn lignende,"
            Driftsinntekter 2021

            0' NOK
        ",Driftsinntekter 2021,,Daglig leder,https://proff.no/rolle/andreas-mortensen/-/1558766/,Andreas Mortensen,(f 1983),Event Norway AS,"[10.716466, 59.915082]",10.716466,59.915082
155,Commandobar AS,https://proff.no/selskap/commandobar-as/oslo/barer-og-puber/IF5DKPK01X8/,Mer info,Org nr 916 024 088,"Badstugata 3, 0181 Oslo",,,https://proff.no/karts%C3%B8k?id=IF5DKPK01X8,Vis i kart,https://proff.no/s%C3%B8k-etter-bransje/barer-og-puber/I:2492/?q=Barer%20og%20puber,Barer og puber,Sammenlign,Overvåk,Finn lignende,"
            Driftsinntekter 2021

            0' NOK
        ",Driftsinntekter 2021,,Daglig leder,https://proff.no/rolle/shea-aidan-martinson/-/1747658/,Shea Aidan Martinson,(f 1990),,"[10.751196, 59.916093]",10.751196,59.916093
156,Ugbaad Internett Café Expresse Khadra Mohamed Abdi,https://proff.no/selskap/ugbaad-internett-caf%C3%A9-expresse-khadra-mohamed-abdi/oslo/barer-og-puber/IF609CG01X8/,Mer info,Org nr 917 082 448,"Hausmanns gate 8 G, 0182 Oslo",tel:90540153,905 40 153,https://proff.no/karts%C3%B8k?id=IF609CG01X8,Vis i kart,https://proff.no/s%C3%B8k-etter-bransje/barer-og-puber/I:2492/?q=Barer%20og%20puber,Barer og puber,Sammenlign,Overvåk,Finn lignende,,,,Daglig leder,https://proff.no/rolle/khadra-mohamed-abdi/-/1841326/,Khadra Mohamed Abdi,(f 1992),,"[10.756393, 59.916718]",10.756393,59.916718
157,Løkke-Stu Hege B Fjerdingstad,https://proff.no/selskap/l%C3%B8kke-stu-hege-b-fjerdingstad/oslo/barer-og-puber/IF6GJ0X01X8/,Mer info,Org nr 917 841 489,"Schwensens gate 16 C, 0170 Oslo",,,https://proff.no/karts%C3%B8k?id=IF6GJ0X01X8,Vis i kart,https://proff.no/s%C3%B8k-etter-bransje/barer-og-puber/I:2492/?q=Barer%20og%20puber,Barer og puber,Sammenlign,Overvåk,Finn lignende,,,,Innehaver,https://proff.no/rolle/hege-brincker-fjerdingstad/-/1877714/,Hege Brincker Fjerdingstad,(f 1963),,"[10.7386, 59.924374]",10.7386,59.924374
158,K22 Vinbar AS,https://proff.no/selskap/k22-vinbar-as/oslo/barer-og-puber/IF78CX301X8/,Mer info,Org nr 919 139 943,"Kongens gate 22, 0153 Oslo",,,https://proff.no/karts%C3%B8k?id=IF78CX301X8,Vis i kart,https://proff.no/s%C3%B8k-etter-bransje/barer-og-puber/I:2492/?q=Barer%20og%20puber,Barer og puber,Sammenlign,Overvåk,Finn lignende,"
            Driftsinntekter 2021

            0' NOK
        ",Driftsinntekter 2021,"
            Ansatte

            0
        ",Daglig leder,https://proff.no/rolle/robin-allan-dall/-/1943566/,Robin Allan Dall,(f 1989),,"[10.743764, 59.911937]",10.743764,59.911937
159,5 Bar AS,https://proff.no/selskap/5-bar-as/oslo/barer-og-puber/IF7O8BL01X8/,Mer info,Org nr 919 880 481,"Økernveien 182, 0580 Oslo",,,https://proff.no/karts%C3%B8k?id=IF7O8BL01X8,Vis i kart,https://proff.no/s%C3%B8k-etter-bransje/serveringssteder/I:17842/?q=Serveringssteder,Serveringssteder,Sammenlign,Overvåk,Finn lignende,"
            Driftsinntekter 2021

            0' NOK
        ",Driftsinntekter 2021,,Styrets leder,https://proff.no/rolle/stian-vaagland/-/433415/,Stian Vaagland,(f 1977),,"[10.808573, 59.935915]",10.808573,59.935915
160,Sagene Bar v/Noman Ali,https://proff.no/selskap/sagene-bar-vnoman-ali/oslo/barer-og-puber/IF809F501X8/,Mer info,Org nr 920 441 777,"Bentsegata 1, 0465 Oslo",,,https://proff.no/karts%C3%B8k?id=IF809F501X8,Vis i kart,https://proff.no/s%C3%B8k-etter-bransje/barer-og-puber/I:2492/?q=Barer%20og%20puber,Barer og puber,Sammenlign,Overvåk,Finn lignende,"
            Ansatte

            4
        ",Ansatte,,Daglig leder,https://proff.no/rolle/noman-ali/-/1887908/,Noman Ali,(f 1992),,"[10.757136, 59.937869]",10.757136,59.937869
161,Martin Gawlyta,https://proff.no/selskap/martin-gawlyta/oslo/barer-og-puber/IF7LF9K01X8/,Mer info,Org nr 919 749 512,"Skippergata 21 A 0201, 0154 Oslo",,,https://proff.no/karts%C3%B8k?id=IF7LF9K01X8,Vis i kart,https://proff.no/s%C3%B8k-etter-bransje/barer-og-puber/I:2492/?q=Barer%20og%20puber,Barer og puber,Sammenlign,Overvåk,Finn lignende,,,,Innehaver,https://proff.no/rolle/martin-oliwier-gawlyta/-/1999108/,Martin Oliwier Gawlyta,(f 1991),,"[10.747522, 59.910962]",10.747522,59.910962
162,Oslogruppen AS,https://proff.no/selskap/oslogruppen-as/oslo/barer-og-puber/IDKM6DI01X8/,Mer info,Org nr 820 687 302,"Vibes gate 27, 0356 Oslo",,,https://proff.no/karts%C3%B8k?id=IDKM6DI01X8,Vis i kart,https://proff.no/s%C3%B8k-etter-bransje/serveringssteder/I:17842/?q=Serveringssteder,Serveringssteder,Sammenlign,Overvåk,Finn lignende,"
            Driftsinntekter 2021

            0' NOK
        ",Driftsinntekter 2021,,Kontaktperson,https://proff.no/rolle/mathias-relling-johansen/-/319058/,Mathias Relling Johansen,(f 1985),,"[10.726764, 59.927941]",10.726764,59.927941
163,Syng Pent AS,https://proff.no/selskap/syng-pent-as/oslo/barer-og-puber/IF86REW01X8/,Mer info,Org nr 920 745 032,"Øvre gate 7, 0551 Oslo",,,https://proff.no/karts%C3%B8k?id=IF86REW01X8,Vis i kart,https://proff.no/s%C3%B8k-etter-bransje/barer-og-puber/I:2492/?q=Barer%20og%20puber,Barer og puber,Sammenlign,Overvåk,Finn lignende,"
            Driftsinntekter 2021

            0' NOK
        ",Driftsinntekter 2021,"
            Ansatte

            19
        ",Daglig leder,https://proff.no/rolle/melissa-apollonia-bord%C3%B8y-erde/-/2366006/,Melissa Apollonia Bordøy Erde,(f 1994),,"[10.755584, 59.919852]",10.755584,59.919852
164,Skjenkestua Studentbar,https://proff.no/selskap/skjenkestua-studentbar/oslo/barer-og-puber/IF8G4WU01X8/,Mer info,Org nr 921 182 430,"Christian Krohgs gate 32, 0186 Oslo",,,https://proff.no/karts%C3%B8k?id=IF8G4WU01X8,Vis i kart,https://proff.no/s%C3%B8k-etter-bransje/barer-og-puber/I:2492/?q=Barer%20og%20puber,Barer og puber,Sammenlign,Overvåk,Finn lignende,,,,Daglig leder,https://proff.no/rolle/mathias-tollerud/-/1618687/,Mathias Tollerud,(f 1995),,"[10.759912, 59.915944]",10.759912,59.915944
165,Rayan Kaffe Fahma Omar Ali,https://proff.no/selskap/rayan-kaffe-fahma-omar-ali/oslo/barer-og-puber/IF9N04U01X8/,Mer info,Org nr 923 182 446,"Fossumveien 70, 0988 Oslo",tel:95722080,957 22 080,https://proff.no/karts%C3%B8k?id=IF9N04U01X8,Vis i kart,https://proff.no/s%C3%B8k-etter-bransje/barer-og-puber/I:2492/?q=Barer%20og%20puber,Barer og puber,Sammenlign,Overvåk,Finn lignende,,,,Innehaver,https://proff.no/rolle/fahma-omar-ali/-/1779476/,Fahma Omar Ali,(f 1986),,"[10.922966, 59.962474]",10.922966,59.962474
166,Ivars Pub Grønland AS,https://proff.no/selskap/ivars-pub-gr%C3%B8nland-as/oslo/barer-og-puber/IFABIAZ01X8/,Mer info,Org nr 924 325 739,"Grønlandsleiret 17 A, 0190 Oslo",,,https://proff.no/karts%C3%B8k?id=IFABIAZ01X8,Vis i kart,https://proff.no/s%C3%B8k-etter-bransje/barer-og-puber/I:2492/?q=Barer%20og%20puber,Barer og puber,Sammenlign,Overvåk,Finn lignende,"
            Driftsinntekter 2021

            0' NOK
        ",Driftsinntekter 2021,,Daglig leder,https://proff.no/rolle/tadzedin-fetisi/-/985921/,Tadzedin Fetisi,(f 1974),,"[10.76441, 59.912058]",10.76441,59.912058
167,2 Gode Venner AS,https://proff.no/selskap/2-gode-venner-as/oslo/barer-og-puber/IFAFZM401X8/,Mer info,Org nr 924 534 796,"C. J. Hambros plass 5, 0164 Oslo",,,https://proff.no/karts%C3%B8k?id=IFAFZM401X8,Vis i kart,https://proff.no/s%C3%B8k-etter-bransje/barer-og-puber/I:2492/?q=Barer%20og%20puber,Barer og puber,Sammenlign,Overvåk,Finn lignende,"
            Driftsinntekter 2021

            0' NOK
        ",Driftsinntekter 2021,,Styrets leder,https://proff.no/rolle/tadzedin-fetisi/-/985921/,Tadzedin Fetisi,(f 1974),,"[10.74086, 59.915408]",10.74086,59.915408
168,Boonsaeed Deena Hassan Saeed,https://proff.no/selskap/boonsaeed-deena-hassan-saeed/oslo/barer-og-puber/IFAKYAZ01X8/,Mer info,Org nr 924 766 379,"Kristoffer Robins vei 68, 0978 Oslo",,,https://proff.no/karts%C3%B8k?id=IFAKYAZ01X8,Vis i kart,https://proff.no/s%C3%B8k-etter-bransje/barer-og-puber/I:2492/?q=Barer%20og%20puber,Barer og puber,Sammenlign,Overvåk,Finn lignende,,,,Innehaver,https://proff.no/rolle/deena-hassan-saeed/-/2171876/,Deena Hassan Saeed,(f 1990),,"[10.916746, 59.955262]",10.916746,59.955262
169,Srw Holding AS,https://proff.no/selskap/srw-holding-as/oslo/barer-og-puber/IFAO2LT01X8/,Mer info,Org nr 924 911 921,"Thorvald Meyers gate 18 A, 0555 Oslo",,,https://proff.no/karts%C3%B8k?id=IFAO2LT01X8,Vis i kart,https://proff.no/s%C3%B8k-etter-bransje/serveringssteder/I:17842/?q=Serveringssteder,Serveringssteder,Sammenlign,Overvåk,Finn lignende,"
            Driftsinntekter 2021

            0' NOK
        ",Driftsinntekter 2021,,Kontaktperson,https://proff.no/rolle/odd-steinar-t%C3%B8llefsen/-/346181/,Odd-Steinar Tøllefsen,(f 1964),,"[10.759225, 59.9281]",10.759225,59.9281
170,Dugurd Nam AS,https://proff.no/selskap/dugurd-nam-as/oslo/barer-og-puber/IFC1TZ101X8/,Mer info,Org nr 927 233 533,"Dronning Eufemias gate 16, 0191 Oslo",,,https://proff.no/karts%C3%B8k?id=IFC1TZ101X8,Vis i kart,https://proff.no/s%C3%B8k-etter-bransje/kantinetjenester/I:2602/?q=Kantinetjenester,Kantinetjenester,Sammenlign,Overvåk,Finn lignende,"
            Driftsinntekter 2021

            0' NOK
        ",Driftsinntekter 2021,"
            Ansatte

            91
        ",Daglig leder,https://proff.no/rolle/sara-anette-weiberg/-/2086475/,Sara Anette Weiberg,(f 1989),,"[10.758949, 59.908252]",10.758949,59.908252
171,Bar No.53 AS,https://proff.no/selskap/bar-no.53-as/oslo/barer-og-puber/IFC62PN01X8/,Mer info,Org nr 927 431 483,"Schweigaards gate 53 A, 0191 Oslo",tel:45004226,450 04 226,https://proff.no/karts%C3%B8k?id=IFC62PN01X8,Vis i kart,https://proff.no/s%C3%B8k-etter-bransje/barer-og-puber/I:2492/?q=Barer%20og%20puber,Barer og puber,Sammenlign,Overvåk,Finn lignende,"
            Driftsinntekter 2021

            0' NOK
        ",Driftsinntekter 2021,,Daglig leder,https://proff.no/rolle/jeppe-johannes-karlsrud/-/1700708/,Jeppe Johannes Karlsrud,(f 1995),,"[10.767726, 59.908638]",10.767726,59.908638
172,Fagervann AS,https://proff.no/selskap/fagervann-as/oslo/barer-og-puber/IFCX7UJ01X8/,Mer info,Org nr 928 697 851,"Fredensborgveien 17, 0177 Oslo",,,https://proff.no/karts%C3%B8k?id=IFCX7UJ01X8,Vis i kart,https://proff.no/s%C3%B8k-etter-bransje/barer-og-puber/I:2492/?q=Barer%20og%20puber,Barer og puber,Sammenlign,Overvåk,Finn lignende,,,,Styrets leder,https://proff.no/rolle/j%C3%B8rgen-brevik/-/2205752/,Jørgen Brevik,(f 1997),,"[10.747983, 59.918375]",10.747983,59.918375
173,La Cave Palmer AS,https://proff.no/selskap/la-cave-palmer-as/oslo/barer-og-puber/IFCYXZ701X8/,Mer info,Org nr 928 778 371,"Lille Grensen 7, 0159 Oslo",,,https://proff.no/karts%C3%B8k?id=IFCYXZ701X8,Vis i kart,https://proff.no/s%C3%B8k-etter-bransje/barer-og-puber/I:2492/?q=Barer%20og%20puber,Barer og puber,Sammenlign,Overvåk,Finn lignende,,,,Daglig leder,https://proff.no/rolle/morten-hofseth-olsen/-/329055/,Morten Hofseth-Olsen,(f 1977),,"[10.741189, 59.913806]",10.741189,59.913806
174,Kvadraturen Pubdrift AS,https://proff.no/selskap/kvadraturen-pubdrift-as/oslo/barer-og-puber/IFCZKEK01X8/,Mer info,Org nr 928 807 436,"Kongens gate 7, 0153 Oslo",,,https://proff.no/karts%C3%B8k?id=IFCZKEK01X8,Vis i kart,https://proff.no/s%C3%B8k-etter-bransje/barer-og-puber/I:2492/?q=Barer%20og%20puber,Barer og puber,Sammenlign,Overvåk,Finn lignende,,,,Daglig leder,https://proff.no/rolle/morten-guldvik/-/906603/,Morten Guldvik,(f 1984),,"[10.741444, 59.909983]",10.741444,59.909983
175,Boba & Co AS,https://proff.no/selskap/boba-co-as/oslo/barer-og-puber/IFCZIMB01X8/,Mer info,Org nr 928 805 123,"Stovner Senter 3, 0985 Oslo",,,https://proff.no/karts%C3%B8k?id=IFCZIMB01X8,Vis i kart,https://proff.no/s%C3%B8k-etter-bransje/barer-og-puber/I:2492/?q=Barer%20og%20puber,Barer og puber,Sammenlign,Overvåk,Finn lignende,"
            Ansatte

            5
        ",Ansatte,,Daglig leder,https://proff.no/rolle/phuong-kim-thi-phan/-/2323199/,Phuong Kim Thi Phan,(f 1976),,"[10.923727, 59.961789]",10.923727,59.961789
176,Pubdrift 1 AS,https://proff.no/selskap/pubdrift-1-as/oslo/barer-og-puber/IFD1P2B01X8/,Mer info,Org nr 928 906 787,"C. J. Hambros plass 2, 0164 Oslo",,,https://proff.no/karts%C3%B8k?id=IFD1P2B01X8,Vis i kart,https://proff.no/s%C3%B8k-etter-bransje/barer-og-puber/I:2492/?q=Barer%20og%20puber,Barer og puber,Sammenlign,Overvåk,Finn lignende,,,,Styrets leder,https://proff.no/rolle/thomas-flatmo/-/1200689/,Thomas Flatmo,(f 1987),,"[10.741089, 59.915999]",10.741089,59.915999
177,Byrået AS,https://proff.no/selskap/byr%C3%A5et-as/oslo/barer-og-puber/IFD4BWO01X8/,Mer info,Org nr 929 029 704,"Solhauggata 12 D, 0565 Oslo",,,https://proff.no/karts%C3%B8k?id=IFD4BWO01X8,Vis i kart,https://proff.no/s%C3%B8k-etter-bransje/barer-og-puber/I:2492/?q=Barer%20og%20puber,Barer og puber,Sammenlign,Overvåk,Finn lignende,,,,Kontaktperson,https://proff.no/rolle/mathias-dyve-simenstad/-/2067795/,Mathias Dyve Simenstad,(f 1987),,"[10.770969, 59.924456]",10.770969,59.924456
178,Buen Bar AS,https://proff.no/selskap/buen-bar-as/oslo/barer-og-puber/IFD752801X8/,Mer info,Org nr 929 160 800,"Olaf Schous vei 2, 0572 Oslo",,,https://proff.no/karts%C3%B8k?id=IFD752801X8,Vis i kart,https://proff.no/s%C3%B8k-etter-bransje/barer-og-puber/I:2492/?q=Barer%20og%20puber,Barer og puber,Sammenlign,Overvåk,Finn lignende,"
            Ansatte

            2
        ",Ansatte,,Daglig leder,https://proff.no/rolle/june-s%C3%B8rensen/-/2340472/,June Sørensen,(f 1973),,"[10.781939, 59.930441]",10.781939,59.930441
179,Sing Sing Karaoke AS,https://proff.no/selskap/sing-sing-karaoke-as/oslo/barer-og-puber/IFD95TO01X8/,Mer info,Org nr 929 255 100,"Sommerrogata 13, 0255 Oslo",,,https://proff.no/karts%C3%B8k?id=IFD95TO01X8,Vis i kart,https://proff.no/s%C3%B8k-etter-bransje/barer-og-puber/I:2492/?q=Barer%20og%20puber,Barer og puber,Sammenlign,Overvåk,Finn lignende,,,,Kontaktperson,https://proff.no/rolle/maichen-haugland/-/2358006/,Maichen Haugland,(f 1980),,"[10.718902, 59.915115]",10.718902,59.915115
180,Sannhet på Boks AS,https://proff.no/selskap/sannhet-p%C3%A5-boks-as/oslo/barer-og-puber/IFDC4R201X8/,Mer info,Org nr 929 393 678,"Fredensborgveien 22 A, 0177 Oslo",,,https://proff.no/karts%C3%B8k?id=IFDC4R201X8,Vis i kart,https://proff.no/s%C3%B8k-etter-bransje/barer-og-puber/I:2492/?q=Barer%20og%20puber,Barer og puber,Sammenlign,Overvåk,Finn lignende,,,,Daglig leder,https://proff.no/rolle/erik-eugen-bruun/-/113776/,Erik Eugen Bruun,(f 1972),,"[10.747673, 59.918927]",10.747673,59.918927
181,Punk Royale Oslo AS,https://proff.no/selskap/punk-royale-oslo-as/oslo/barer-og-puber/IDPS63W01X8/,Mer info,Org nr 829 364 972,"Oscars gate 81, 0256 Oslo",,,https://proff.no/karts%C3%B8k?id=IDPS63W01X8,Vis i kart,https://proff.no/s%C3%B8k-etter-bransje/barer-og-puber/I:2492/?q=Barer%20og%20puber,Barer og puber,Sammenlign,Overvåk,Finn lignende,"
            Ansatte

            14
        ",Ansatte,,Daglig leder,https://proff.no/rolle/gunnar-filip-wester/-/1393472/,Gunnar Filip Wester,(f 1977),,Error,E,r
182,0186 Bardrift AS,https://proff.no/selskap/0186-bardrift-as/oslo/barer-og-puber/IFDCY1U01X8/,Mer info,Org nr 929 431 650,"Karl Johans gate 27, 0159 Oslo",,,https://proff.no/karts%C3%B8k?id=IFDCY1U01X8,Vis i kart,https://proff.no/s%C3%B8k-etter-bransje/barer-og-puber/I:2492/?q=Barer%20og%20puber,Barer og puber,Sammenlign,Overvåk,Finn lignende,,,,Daglig leder,https://proff.no/rolle/morten-guldvik/-/906603/,Morten Guldvik,(f 1984),,"[10.73997, 59.913595]",10.73997,59.913595
183,Naturkorken AS,https://proff.no/selskap/naturkorken-as/oslo/barer-og-puber/IFDFDSA01X8/,Mer info,Org nr 929 545 354,"Ammerudhellinga 36, 0959 Oslo",tel:93272337,932 72 337,https://proff.no/karts%C3%B8k?id=IFDFDSA01X8,Vis i kart,https://proff.no/s%C3%B8k-etter-bransje/barer-og-puber/I:2492/?q=Barer%20og%20puber,Barer og puber,Sammenlign,Overvåk,Finn lignende,,,,Daglig leder,https://proff.no/rolle/marius-hunstad-hansen/-/2357759/,Marius Hunstad Hansen,(f 1991),,"[10.870672, 59.962071]",10.870672,59.962071
184,Solo Multiservices AS,https://proff.no/selskap/solo-multiservices-as/oslo/barer-og-puber/IFDFLA201X8/,Mer info,Org nr 929 555 066,"Storgata 43, 0182 Oslo",,,https://proff.no/karts%C3%B8k?id=IFDFLA201X8,Vis i kart,https://proff.no/s%C3%B8k-etter-bransje/barer-og-puber/I:2492/?q=Barer%20og%20puber,Barer og puber,Sammenlign,Overvåk,Finn lignende,,,,Daglig leder,https://proff.no/rolle/solomon-ghebretnsae-ghebrihiwot/-/1929730/,Solomon Ghebretnsae Ghebrihiwot,(f 1978),,"[10.75521, 59.915315]",10.75521,59.915315
185,Refresh Via Village AS,https://proff.no/selskap/refresh-via-village-as/oslo/barer-og-puber/IFDFGTJ01X8/,Mer info,Org nr 929 549 287,"Munkedamsveien 29, 0251 Oslo",tel:45418671,454 18 671,https://proff.no/karts%C3%B8k?id=IFDFGTJ01X8,Vis i kart,https://proff.no/s%C3%B8k-etter-bransje/barer-og-puber/I:2492/?q=Barer%20og%20puber,Barer og puber,Sammenlign,Overvåk,Finn lignende,"
            Ansatte

            3
        ",Ansatte,,Daglig leder,https://proff.no/rolle/neha-vij/-/1948966/,Neha Vij,(f 1990),,"[10.726725, 59.91217]",10.726725,59.91217
186,Weldesemayat Etiopisk Kaffeseremoni,https://proff.no/selskap/weldesemayat-etiopisk-kaffeseremoni/oslo/barer-og-puber/IFDHDPH01X8/,Mer info,Org nr 929 638 565,"Messepromenaden 7, 0279 Oslo",tel:40332404,403 32 404,https://proff.no/karts%C3%B8k?id=IFDHDPH01X8,Vis i kart,https://proff.no/s%C3%B8k-etter-bransje/barer-og-puber/I:2492/?q=Barer%20og%20puber,Barer og puber,Sammenlign,Overvåk,Finn lignende,,,,Innehaver,https://proff.no/rolle/bayush-nigusse-weldesemayat/-/2361435/,Bayush Nigusse Weldesemayat,(f 1983),,"[10.680144, 59.920362]",10.680144,59.920362
187,Krok Bar AS,https://proff.no/selskap/krok-bar-as/oslo/barer-og-puber/IFDM0NA01X8/,Mer info,Org nr 929 854 918,"Youngstorget 1, 0181 Oslo",,,https://proff.no/karts%C3%B8k?id=IFDM0NA01X8,Vis i kart,https://proff.no/s%C3%B8k-etter-bransje/barer-og-puber/I:2492/?q=Barer%20og%20puber,Barer og puber,Sammenlign,Overvåk,Finn lignende,,,,Daglig leder,https://proff.no/rolle/nils-gustaf-emil-nilsson/-/2165448/,Nils-Gustaf Emil Nilsson,(f 1991),,"[10.75012, 59.914781]",10.75012,59.914781
188,Gvino AS,https://proff.no/selskap/gvino-as/oslo/barer-og-puber/IFDU2R601X8/,Mer info,Org nr 930 230 898,"Maridalsveien 9, 0178 Oslo",,,https://proff.no/karts%C3%B8k?id=IFDU2R601X8,Vis i kart,https://proff.no/s%C3%B8k-etter-bransje/barer-og-puber/I:2492/?q=Barer%20og%20puber,Barer og puber,Sammenlign,Overvåk,Finn lignende,,,,Styrets leder,https://proff.no/rolle/natia-kurua/-/1956496/,Natia Kurua,(f 1983),,"[10.751032, 59.921577]",10.751032,59.921577
189,Wining AS,https://proff.no/selskap/wining-as/oslo/barer-og-puber/IFDU6T401X8/,Mer info,Org nr 930 236 152,"Holmendammen terrasse 5, 0773 Oslo",tel:90010012,900 10 012,https://proff.no/karts%C3%B8k?id=IFDU6T401X8,Vis i kart,https://proff.no/s%C3%B8k-etter-bransje/barer-og-puber/I:2492/?q=Barer%20og%20puber,Barer og puber,Sammenlign,Overvåk,Finn lignende,,,,Daglig leder,https://proff.no/rolle/gaute-gude-teigen/-/135134/,Gaute Gude Teigen,(f 1972),,"[10.678427, 59.947282]",10.678427,59.947282
190,Lodexer AS,https://proff.no/selskap/lodexer-as/oslo/barer-og-puber/IGAADVW01X8/,Mer info,Org nr 984 739 532,"Hegdehaugsveien 24, 0352 Oslo",tel:97768906,977 68 906,https://proff.no/karts%C3%B8k?id=IGAADVW01X8,Vis i kart,https://proff.no/s%C3%B8k-etter-bransje/barer-og-puber/I:2492/?q=Barer%20og%20puber,Barer og puber,Sammenlign,Overvåk,Finn lignende,"
            Driftsinntekter 2020

            0' NOK
        ",Driftsinntekter 2020,"
            Ansatte

            0
        ",Daglig leder,https://proff.no/rolle/bent-kristian-finset/-/53172/,Bent Kristian Finset,(f 1971),,"[10.72762, 59.920996]",10.72762,59.920996
191,Andy's Pub,https://proff.no/selskap/andys-pub/oslo/barer-og-puber/IEO6XPK01X8/,Mer info,Org nr 887 160 872,"Stortingsgata 8, 0161 Oslo",tel:22426846,22 42 68 46,https://proff.no/karts%C3%B8k?id=IEO6XPK01X8,Vis i kart,https://proff.no/s%C3%B8k-etter-bransje/barer-og-puber/I:2492/?q=Barer%20og%20puber,Barer og puber,Sammenlign,Overvåk,Finn lignende,"
            Driftsinntekter 2021

            0' NOK
        ",Driftsinntekter 2021,"
            Ansatte

            0
        ",Daglig leder,https://proff.no/rolle/yasir-khan/-/510979/,Yasir Khan,(f 1975),Andys Pubdrift AS,"[10.73755, 59.913151]",10.73755,59.913151
192,Nye Tamara ANS,https://proff.no/selskap/nye-tamara-ans/oslo/barer-og-puber/IGBOFEU01X8/,Mer info,Org nr 987 074 310,"Toftes gate 50, 0556 Oslo",tel:22375680,22 37 56 80,https://proff.no/karts%C3%B8k?id=IGBOFEU01X8,Vis i kart,https://proff.no/s%C3%B8k-etter-bransje/barer-og-puber/I:2492/?q=Barer%20og%20puber,Barer og puber,Sammenlign,Overvåk,Finn lignende,"
            Ansatte

            0
        ",Ansatte,,Daglig leder,https://proff.no/rolle/rafi-rafiei-rozbahani/-/382098/,Rafi Rafiei Rozbahani,(f 1973),,"[10.761557, 59.925721]",10.761557,59.925721
193,Bar Robinet,https://proff.no/selskap/bar-robinet/oslo/barer-og-puber/IG8GAHE01X8/,Mer info,Org nr 981 655 826,"Mariboes gate 7, 0183 Oslo",tel:22200150,22 20 01 50,https://proff.no/karts%C3%B8k?id=IG8GAHE01X8,Vis i kart,https://proff.no/s%C3%B8k-etter-bransje/barer-og-puber/I:2492/?q=Barer%20og%20puber,Barer og puber,Sammenlign,Overvåk,Finn lignende,"
            Ansatte

            7
        ",Ansatte,,Innehaver,https://proff.no/rolle/david-gurrik/-/92883/,David Gurrik,(f 1969),Bar Robinet Gurrik,"[10.750526, 59.916394]",10.750526,59.916394
194,Arbeidergata Restaurantdrift AS,https://proff.no/selskap/arbeidergata-restaurantdrift-as/oslo/barer-og-puber/IGEQP5001X8/,Mer info,Org nr 992 219 076,"Toftes gate 41 A, 0552 Oslo",tel:94145461,941 45 461,https://proff.no/karts%C3%B8k?id=IGEQP5001X8,Vis i kart,https://proff.no/s%C3%B8k-etter-bransje/barer-og-puber/I:2492/?q=Barer%20og%20puber,Barer og puber,Sammenlign,Overvåk,Finn lignende,"
            Driftsinntekter 2021

            0' NOK
        ",Driftsinntekter 2021,"
            Ansatte

            0
        ",Daglig leder,https://proff.no/rolle/raymond-stubben/-/798052/,Raymond Stubben,(f 1973),,"[10.760985, 59.924381]",10.760985,59.924381
195,"Hvelvet Studentpub, Studentunionen Ved Campus",https://proff.no/selskap/hvelvet-studentpub-studentunionen-ved-campus/oslo/barer-og-puber/IGFXJ4O01X8/,Mer info,Org nr 994 217 496,"Kirkegata 24, 0153 Oslo",tel:47321526,473 21 526,https://proff.no/karts%C3%B8k?id=IGFXJ4O01X8,Vis i kart,https://proff.no/s%C3%B8k-etter-bransje/barer-og-puber/I:2492/?q=Barer%20og%20puber,Barer og puber,Sammenlign,Overvåk,Finn lignende,,,,Styrets leder,https://proff.no/rolle/anna-sedova/-/2214161/,Anna Sedova,(f 1999),"Hvelvet Studentpub, Studentunionen Ved Campus Kristiania","[10.744853, 59.911213]",10.744853,59.911213
196,Traugots Kjeller,https://proff.no/selskap/traugots-kjeller/oslo/barer-og-puber/IG86P5H01X8/,Mer info,Org nr 981 208 277,"Sem Sælands vei 7, 0371 Oslo",tel:22858092,22 85 80 92,https://proff.no/karts%C3%B8k?id=IG86P5H01X8,Vis i kart,https://proff.no/s%C3%B8k-etter-bransje/barer-og-puber/I:2492/?q=Barer%20og%20puber,Barer og puber,Sammenlign,Overvåk,Finn lignende,,,,Daglig leder,https://proff.no/rolle/sigve-n%C3%A6ss-r%C3%B8tvold/-/2242104/,Sigve Næss Røtvold,(f 1999),,"[10.719243, 59.938539]",10.719243,59.938539
197,Ole Andreas Hermansen,https://proff.no/selskap/ole-andreas-hermansen/oslo/barer-og-puber/IGAOWST01X8/,Mer info,Org nr 985 417 229,"Pilestredet Park 34, 0176 Oslo",,,https://proff.no/karts%C3%B8k?id=IGAOWST01X8,Vis i kart,https://proff.no/s%C3%B8k-etter-bransje/barer-og-puber/I:2492/?q=Barer%20og%20puber,Barer og puber,Sammenlign,Overvåk,Finn lignende,,,,Innehaver,https://proff.no/rolle/ole-andreas-hermansen/-/354713/,Ole Andreas Hermansen,(f 1979),,"[10.737343, 59.920141]",10.737343,59.920141
198,Cafe Cito Morteza Fatehi,https://proff.no/selskap/cafe-cito-morteza-fatehi/oslo/barer-og-puber/IGCQZ1J01X8/,Mer info,Org nr 988 872 679,"Jordalgata 2, 0657 Oslo",tel:21921550,21 92 15 50,https://proff.no/karts%C3%B8k?id=IGCQZ1J01X8,Vis i kart,https://proff.no/s%C3%B8k-etter-bransje/barer-og-puber/I:2492/?q=Barer%20og%20puber,Barer og puber,Sammenlign,Overvåk,Finn lignende,"
            Ansatte

            0
        ",Ansatte,,Innehaver,https://proff.no/rolle/morteza-fatehi/-/332502/,Morteza Fatehi,(f 1963),,"[10.779197, 59.90832]",10.779197,59.90832
199,Realistforeningen,https://proff.no/selskap/realistforeningen/oslo/barer-og-puber/IG45Y4H01X8/,Mer info,Org nr 974 454 785,"Moltke Moes vei 35, 0851 Oslo",tel:22854710,22 85 47 10,https://proff.no/karts%C3%B8k?id=IG45Y4H01X8,Vis i kart,https://proff.no/s%C3%B8k-etter-bransje/barer-og-puber/I:2492/?q=Barer%20og%20puber,Barer og puber,Sammenlign,Overvåk,Finn lignende,,,,Daglig leder,https://proff.no/rolle/didrik-svellingen/-/2278571/,Didrik Svellingen,(f 1996),,"[10.723175, 59.9402]",10.723175,59.9402
200,Uglebo,https://proff.no/selskap/uglebo/oslo/barer-og-puber/IGC6WZI01X8/,Mer info,Org nr 987 936 894,"Niels Henrik Abels vei 36, 0371 Oslo",,,https://proff.no/karts%C3%B8k?id=IGC6WZI01X8,Vis i kart,https://proff.no/s%C3%B8k-etter-bransje/barer-og-puber/I:2492/?q=Barer%20og%20puber,Barer og puber,Sammenlign,Overvåk,Finn lignende,,,,Daglig leder,https://proff.no/rolle/juline-emilia-torp-dalessandro/-/1880828/,Juline Emilia Torp D'alessandro,(f 1995),,"[10.723686, 59.942082]",10.723686,59.942082
201,Filologisk Forening,https://proff.no/selskap/filologisk-forening/oslo/barer-og-puber/IG8LMWF01X8/,Mer info,Org nr 981 905 199,"Niels Henrik Abels vei 36, 0371 Oslo",tel:22854461,22 85 44 61,https://proff.no/karts%C3%B8k?id=IG8LMWF01X8,Vis i kart,https://proff.no/s%C3%B8k-etter-bransje/barer-og-puber/I:2492/?q=Barer%20og%20puber,Barer og puber,Sammenlign,Overvåk,Finn lignende,,,,Daglig leder,https://proff.no/rolle/juline-emilia-torp-dalessandro/-/1880828/,Juline Emilia Torp D'alessandro,(f 1995),,"[10.723686, 59.942082]",10.723686,59.942082
202,Event Norway AS,https://proff.no/selskap/event-norway-as/oslo/barer-og-puber/IF2SDQC01X8-1/,Mer info,Org nr 911 676 036,"Parkveien 80, 0254 Oslo",,,https://proff.no/karts%C3%B8k?id=IF2SDQC01X8-1,Vis i kart,https://proff.no/s%C3%B8k-etter-bransje/barer-og-puber/I:2492/?q=Barer%20og%20puber,Barer og puber,Sammenlign,Overvåk,Finn lignende,"
            Driftsinntekter 2021

            0' NOK
        ",Driftsinntekter 2021,,Daglig leder,https://proff.no/rolle/andreas-mortensen/-/1558766/,Andreas Mortensen,(f 1983),,"[10.718933, 59.912147]",10.718933,59.912147
203,Trea Restaurant Tekie,https://proff.no/selskap/trea-restaurant-tekie/oslo/barer-og-puber/IGIQ1W301X8/,Mer info,Org nr 998 907 411,"Holsts gate 9 B, 0473 Oslo",,,https://proff.no/karts%C3%B8k?id=IGIQ1W301X8,Vis i kart,https://proff.no/s%C3%B8k-etter-bransje/barer-og-puber/I:2492/?q=Barer%20og%20puber,Barer og puber,Sammenlign,Overvåk,Finn lignende,"
            Ansatte

            0
        ",Ansatte,,Innehaver,https://proff.no/rolle/merhawi-gebrehiwet-tekie/-/1527847/,Merhawi Gebrehiwet Tekie,(f 1983),,"[10.761492, 59.931378]",10.761492,59.931378
204,Kongens Bar Ram Partap,https://proff.no/selskap/kongens-bar-ram-partap/oslo/barer-og-puber/IGBXCH701X8/,Mer info,Org nr 987 490 411,"Kristian Augusts gate 13, 0164 Oslo",tel:22116611,22 11 66 11,https://proff.no/karts%C3%B8k?id=IGBXCH701X8,Vis i kart,https://proff.no/s%C3%B8k-etter-bransje/barer-og-puber/I:2492/?q=Barer%20og%20puber,Barer og puber,Sammenlign,Overvåk,Finn lignende,,,,Innehaver,https://proff.no/rolle/ram-partap/-/385047/,Ram Partap,(f 1946),,"[10.737562, 59.916806]",10.737562,59.916806
205,Edvards Kaffebar Preben Henning,https://proff.no/selskap/edvards-kaffebar-preben-henning/oslo/barer-og-puber/IGA2HEX01X8/,Mer info,Org nr 984 370 857,"Schous plass 1, 0552 Oslo",,,https://proff.no/karts%C3%B8k?id=IGA2HEX01X8,Vis i kart,https://proff.no/s%C3%B8k-etter-bransje/barer-og-puber/I:2492/?q=Barer%20og%20puber,Barer og puber,Sammenlign,Overvåk,Finn lignende,"
            Ansatte

            0
        ",Ansatte,,Innehaver,https://proff.no/rolle/preben-henning/-/379543/,Preben Henning,(f 1981),,"[10.759596, 59.921139]",10.759596,59.921139
206,Enoteca Svanen,https://proff.no/selskap/enoteca-svanen/oslo/barer-og-puber/IF2QZ1T01X8/,Mer info,Org nr 911 610 353,"Solveien 106 A, 1162 Oslo",,,https://proff.no/karts%C3%B8k?id=IF2QZ1T01X8,Vis i kart,https://proff.no/s%C3%B8k-etter-bransje/barer-og-puber/I:2492/?q=Barer%20og%20puber,Barer og puber,Sammenlign,Overvåk,Finn lignende,"
            Driftsinntekter 2021

            0' NOK
        ",Driftsinntekter 2021,,Styrets leder,https://proff.no/rolle/kjell-thomas-almskog/-/263291/,Kjell Thomas Almskog,(f 1965),Restauranthuset D64 AS,"[10.791383, 59.86377]",10.791383,59.86377
207,Kjelland Sportsbar Teberh Kidane Kaffel,https://proff.no/selskap/kjelland-sportsbar-teberh-kidane-kaffel/oslo/barer-og-puber/IF31CDX01X8/,Mer info,Org nr 912 094 197,"Waldemar Thranes gate 65 A, 0173 Oslo",tel:97511394,975 11 394,https://proff.no/karts%C3%B8k?id=IF31CDX01X8,Vis i kart,https://proff.no/s%C3%B8k-etter-bransje/barer-og-puber/I:2492/?q=Barer%20og%20puber,Barer og puber,Sammenlign,Overvåk,Finn lignende,"
            Ansatte

            3
        ",Ansatte,,Daglig leder,https://proff.no/rolle/teberh-kidane-kaffel/-/1588711/,Teberh Kidane Kaffel,(f 1982),,"[10.749195, 59.927789]",10.749195,59.927789
